{"type":"FeatureCollection","features":[{"type":"Feature","geometry":{"type":"LineString","coordinates":[[-118.14693,34.13534,0],[-118.14672,34.13534,0],[-118.14666,34.13534,0],[-118.14666,34.13539,0],[-118.14666,34.13552,0],[-118.14666,34.13561,0],[-118.14667,34.13565,0],[-118.14666,34.13571,0],[-118.14666,34.13578,0],[-118.1466,34.13578,0],[-118.14654,34.13579,0],[-118.14643,34.13579,0],[-118.14636,34.13579,0],[-118.14587,34.1358,0],[-118.14587,34.13562,0],[-118.14587,34.13551,0],[-118.14587,34.13535,0],[-118.14587,34.1352,0],[-118.14586,34.13481,0],[-118.14586,34.13473,0],[-118.14586,34.13467,0],[-118.14586,34.13416,0],[-118.14586,34.13401,0],[-118.14585,34.13389,0],[-118.14585,34.13385,0],[-118.14585,34.13384,0],[-118.14585,34.13354,0],[-118.14585,34.13316,0],[-118.14585,34.13302,0],[-118.14585,34.13299,0],[-118.14584,34.13288,0],[-118.14584,34.13275,0],[-118.14584,34.1326,0],[-118.14584,34.13245,0],[-118.14584,34.13237,0],[-118.14584,34.13191,0],[-118.14584,34.13184,0],[-118.14584,34.1318,0],[-118.14583,34.13176,0],[-118.14583,34.13117,0],[-118.14583,34.13116,0],[-118.14583,34.13108,0],[-118.14583,34.13107,0],[-118.14583,34.13102,0],[-118.14583,34.13099,0],[-118.14583,34.13094,0],[-118.14583,34.13091,0],[-118.14582,34.13069,0],[-118.14582,34.13037,0],[-118.14582,34.13028,0],[-118.14582,34.13023,0],[-118.14582,34.13007,0],[-118.14582,34.13005,0],[-118.14582,34.12999,0],[-118.14581,34.1297,0],[-118.14581,34.12962,0],[-118.14581,34.12961,0],[-118.14581,34.12959,0],[-118.14581,34.12927,0],[-118.1458,34.12864,0],[-118.1458,34.12862,0],[-118.1458,34.12851,0],[-118.1458,34.12844,0],[-118.1458,34.12836,0],[-118.1458,34.12831,0],[-118.1458,34.12822,0],[-118.1458,34.12808,0],[-118.1458,34.128,0],[-118.1458,34.12794,0],[-118.1458,34.12786,0],[-118.1458,34.12772,0],[-118.1458,34.1277,0],[-118.1458,34.12755,0],[-118.1458,34.1274,0],[-118.1458,34.12738,0],[-118.14581,34.12735,0],[-118.14581,34.12727,0],[-118.14581,34.12719,0],[-118.14581,34.12685,0],[-118.14581,34.1268,0],[-118.14581,34.12677,0],[-118.14581,34.12674,0],[-118.14579,34.12664,0],[-118.14579,34.12659,0],[-118.14579,34.12656,0],[-118.14579,34.12653,0],[-118.14578,34.12621,0],[-118.14578,34.12619,0],[-118.14578,34.12616,0],[-118.14578,34.12571,0],[-118.14577,34.12568,0],[-118.14577,34.1256,0],[-118.14577,34.12549,0],[-118.14576,34.12519,0],[-118.14576,34.12513,0],[-118.14574,34.12504,0],[-118.14571,34.12488,0],[-118.14566,34.12473,0],[-118.1456,34.12463,0],[-118.14558,34.12459,0],[-118.14553,34.12452,0],[-118.14548,34.12445,0],[-118.14539,34.12433,0],[-118.14537,34.1243,0],[-118.14536,34.12429,0],[-118.14533,34.12425,0],[-118.14528,34.12421,0],[-118.14525,34.12417,0],[-118.14522,34.12414,0],[-118.1452,34.12413,0],[-118.14514,34.12407,0],[-118.14512,34.12405,0],[-118.14502,34.12396,0],[-118.14498,34.12392,0],[-118.14489,34.12384,0],[-118.14482,34.12378,0],[-118.14476,34.12372,0],[-118.14475,34.12371,0],[-118.14443,34.12342,0],[-118.14441,34.1234,0],[-118.14428,34.12328,0],[-118.14425,34.12325,0],[-118.14421,34.12321,0],[-118.1441,34.12311,0],[-118.14389,34.12291,0],[-118.14362,34.12266,0],[-118.14309,34.12218,0],[-118.14305,34.12214,0],[-118.1428,34.12191,0],[-118.14279,34.12191,0],[-118.14277,34.12189,0],[-118.14275,34.12187,0],[-118.14255,34.12169,0],[-118.1425,34.12165,0],[-118.1425,34.12164,0],[-118.1424,34.12156,0],[-118.14221,34.12138,0],[-118.14219,34.12137,0],[-118.14216,34.12134,0],[-118.14207,34.12125,0],[-118.14206,34.12124,0],[-118.14205,34.12123,0],[-118.14202,34.1212,0],[-118.14171,34.12093,0],[-118.14162,34.12084,0],[-118.14158,34.1208,0],[-118.1415,34.12073,0],[-118.14139,34.12063,0],[-118.14136,34.12061,0],[-118.14123,34.12048,0],[-118.14104,34.12031,0],[-118.14091,34.12018,0],[-118.14088,34.12016,0],[-118.14084,34.12012,0],[-118.14079,34.12008,0],[-118.14076,34.12005,0],[-118.14072,34.12001,0],[-118.1407,34.12,0],[-118.14066,34.11995,0],[-118.14062,34.11992,0],[-118.14057,34.11988,0],[-118.14034,34.11966,0],[-118.14032,34.11964,0],[-118.1403,34.11962,0],[-118.14022,34.11956,0],[-118.14017,34.11952,0],[-118.14014,34.1195,0],[-118.14011,34.11948,0],[-118.14007,34.11945,0],[-118.14004,34.11943,0],[-118.14001,34.11942,0],[-118.13998,34.1194,0],[-118.13993,34.11938,0],[-118.13988,34.11935,0],[-118.1398,34.11932,0],[-118.13977,34.11931,0],[-118.1397,34.11928,0],[-118.13961,34.11924,0],[-118.13956,34.11923,0],[-118.13949,34.1192,0],[-118.13942,34.11917,0],[-118.13941,34.11917,0],[-118.13941,34.11916,0],[-118.13937,34.11915,0],[-118.13935,34.11914,0],[-118.13933,34.11914,0],[-118.13929,34.11914,0],[-118.13927,34.11914,0],[-118.13918,34.11915,0],[-118.13917,34.11911,0],[-118.13916,34.11905,0],[-118.13915,34.11899,0],[-118.13913,34.11894,0],[-118.13912,34.11892,0],[-118.13911,34.11889,0],[-118.13902,34.11868,0],[-118.139,34.11863,0],[-118.1389,34.11838,0],[-118.13887,34.11832,0],[-118.13884,34.11824,0],[-118.13878,34.11811,0],[-118.13877,34.11808,0],[-118.13876,34.11805,0],[-118.1384,34.11717,0],[-118.1384,34.11716,0],[-118.13839,34.11714,0],[-118.13838,34.11712,0],[-118.13823,34.11676,0],[-118.13817,34.11663,0],[-118.13815,34.11658,0],[-118.13815,34.11657,0],[-118.13814,34.11656,0],[-118.13812,34.1165,0],[-118.13811,34.11649,0],[-118.13811,34.11647,0],[-118.13799,34.1162,0],[-118.13795,34.1161,0],[-118.13793,34.11604,0],[-118.13791,34.11601,0],[-118.1379,34.11598,0],[-118.13787,34.11591,0],[-118.13784,34.11584,0],[-118.13782,34.11579,0],[-118.13778,34.11569,0],[-118.13767,34.11544,0],[-118.13758,34.11522,0],[-118.13747,34.11496,0],[-118.13745,34.11492,0],[-118.13734,34.11465,0],[-118.13724,34.11441,0],[-118.13721,34.11434,0],[-118.13714,34.11416,0],[-118.1371,34.11408,0],[-118.13684,34.11345,0],[-118.1368,34.11335,0],[-118.13674,34.11321,0],[-118.13667,34.11306,0],[-118.13662,34.11293,0],[-118.13656,34.11278,0],[-118.13652,34.11269,0],[-118.13651,34.11268,0],[-118.1365,34.11265,0],[-118.13645,34.11253,0],[-118.13641,34.11243,0],[-118.1364,34.11242,0],[-118.13633,34.11226,0],[-118.13626,34.11209,0],[-118.13625,34.11206,0],[-118.13608,34.11166,0],[-118.13607,34.11166,0],[-118.13601,34.1115,0],[-118.13599,34.11145,0],[-118.13588,34.11119,0],[-118.1358,34.111,0],[-118.13577,34.11093,0],[-118.1357,34.11078,0],[-118.13567,34.11071,0],[-118.13566,34.11068,0],[-118.13564,34.11064,0],[-118.13562,34.11061,0],[-118.13558,34.11054,0],[-118.13554,34.11049,0],[-118.1355,34.11045,0],[-118.13546,34.1104,0],[-118.13538,34.11032,0],[-118.13533,34.11027,0],[-118.13532,34.11026,0],[-118.13526,34.1102,0],[-118.13517,34.11012,0],[-118.13511,34.11006,0],[-118.1351,34.11004,0],[-118.13508,34.11002,0],[-118.13504,34.10999,0],[-118.13501,34.10996,0],[-118.13496,34.1099,0],[-118.13491,34.10984,0],[-118.13489,34.10981,0],[-118.13485,34.10976,0],[-118.13482,34.10971,0],[-118.1348,34.10966,0],[-118.13479,34.10966,0],[-118.13477,34.10959,0],[-118.13477,34.10956,0],[-118.13476,34.10946,0],[-118.13475,34.10934,0],[-118.13475,34.10927,0],[-118.13475,34.10904,0],[-118.13475,34.10849,0],[-118.13474,34.1083,0],[-118.13474,34.10819,0],[-118.13474,34.10795,0],[-118.13474,34.10787,0],[-118.13474,34.10779,0],[-118.13474,34.10774,0],[-118.13474,34.10766,0],[-118.13474,34.10763,0],[-118.13474,34.1076,0],[-118.13474,34.10759,0],[-118.13473,34.10739,0],[-118.13473,34.10736,0],[-118.13473,34.10733,0],[-118.13473,34.10728,0],[-118.13473,34.1072,0],[-118.13473,34.10717,0],[-118.13473,34.10716,0],[-118.13473,34.10707,0],[-118.13473,34.10689,0],[-118.13473,34.10669,0],[-118.13473,34.10663,0],[-118.13472,34.10655,0],[-118.13471,34.10643,0],[-118.13471,34.10641,0],[-118.1347,34.10627,0],[-118.13469,34.10609,0],[-118.13469,34.10592,0],[-118.13469,34.10591,0],[-118.13469,34.1059,0],[-118.13469,34.10585,0],[-118.13471,34.10572,0],[-118.13472,34.10556,0],[-118.13472,34.10553,0],[-118.13472,34.10548,0],[-118.13473,34.1054,0],[-118.13473,34.10534,0],[-118.13473,34.10513,0],[-118.13472,34.10507,0],[-118.13472,34.10476,0],[-118.13472,34.10457,0],[-118.13472,34.1044,0],[-118.13472,34.10437,0],[-118.13472,34.10427,0],[-118.13472,34.1041,0],[-118.13472,34.10397,0],[-118.13472,34.10387,0],[-118.13471,34.10367,0],[-118.13471,34.10339,0],[-118.13471,34.10271,0],[-118.13471,34.10261,0],[-118.13471,34.1025,0],[-118.13471,34.10239,0],[-118.13471,34.1022,0],[-118.13471,34.10218,0],[-118.13471,34.10188,0],[-118.1347,34.1007,0],[-118.1347,34.10054,0],[-118.1347,34.10004,0],[-118.13469,34.09977,0],[-118.13469,34.09966,0],[-118.13469,34.09957,0],[-118.13469,34.09914,0],[-118.13469,34.09909,0],[-118.13469,34.09907,0],[-118.13469,34.09895,0],[-118.13469,34.09877,0],[-118.13469,34.09865,0],[-118.13469,34.0986,0],[-118.13469,34.09854,0],[-118.13469,34.09851,0],[-118.13469,34.09848,0],[-118.13469,34.0984,0],[-118.1347,34.09824,0],[-118.1347,34.09823,0],[-118.1347,34.09818,0],[-118.1347,34.09806,0],[-118.13469,34.09796,0],[-118.13469,34.09785,0],[-118.13469,34.09766,0],[-118.13469,34.0976,0],[-118.13469,34.09747,0],[-118.13469,34.09734,0],[-118.13469,34.09716,0],[-118.13469,34.09702,0],[-118.13469,34.09692,0],[-118.13469,34.09687,0],[-118.13469,34.09684,0],[-118.13469,34.09681,0],[-118.13469,34.09665,0],[-118.13469,34.0966,0],[-118.13468,34.09576,0],[-118.13468,34.09569,0],[-118.13468,34.09568,0],[-118.13468,34.09563,0],[-118.13467,34.09554,0],[-118.13467,34.09544,0],[-118.13467,34.09543,0],[-118.13467,34.0953,0],[-118.13467,34.09525,0],[-118.13467,34.09516,0],[-118.13467,34.0951,0],[-118.13467,34.09508,0],[-118.13466,34.09487,0],[-118.13466,34.09484,0],[-118.13466,34.09467,0],[-118.13466,34.09441,0],[-118.13466,34.09428,0],[-118.13466,34.09425,0],[-118.13466,34.09417,0],[-118.13466,34.09392,0],[-118.13466,34.09366,0],[-118.13465,34.09328,0],[-118.13465,34.09325,0],[-118.13465,34.09317,0],[-118.13464,34.09306,0],[-118.13464,34.09304,0],[-118.13464,34.09303,0],[-118.13464,34.09301,0],[-118.13464,34.09281,0],[-118.13464,34.09267,0],[-118.13464,34.09259,0],[-118.13464,34.09248,0],[-118.13465,34.09238,0],[-118.13465,34.09227,0],[-118.13465,34.09224,0],[-118.13465,34.09209,0],[-118.13465,34.09201,0],[-118.13465,34.09199,0],[-118.13465,34.09183,0],[-118.13465,34.09182,0],[-118.13465,34.09181,0],[-118.13464,34.09165,0],[-118.13463,34.09149,0],[-118.13464,34.09139,0],[-118.13464,34.09114,0],[-118.13464,34.09109,0],[-118.13464,34.091,0],[-118.13464,34.09073,0],[-118.13464,34.09071,0],[-118.13463,34.0906,0],[-118.13463,34.09049,0],[-118.13463,34.09045,0],[-118.13463,34.09042,0],[-118.13463,34.09041,0],[-118.13463,34.09036,0],[-118.13463,34.09031,0],[-118.13462,34.09029,0],[-118.13462,34.09,0],[-118.13462,34.08942,0],[-118.13462,34.08934,0],[-118.13462,34.08932,0],[-118.13462,34.0893,0],[-118.13462,34.08929,0],[-118.13462,34.08926,0],[-118.13462,34.08923,0],[-118.13462,34.08915,0],[-118.13461,34.08859,0],[-118.13461,34.08849,0],[-118.13462,34.08842,0],[-118.13462,34.0884,0],[-118.13461,34.08837,0],[-118.13461,34.08829,0],[-118.13461,34.08819,0],[-118.13461,34.08814,0],[-118.13461,34.08813,0],[-118.13461,34.08807,0],[-118.13462,34.08799,0],[-118.13462,34.08798,0],[-118.13462,34.08793,0],[-118.13462,34.08792,0],[-118.13462,34.08777,0],[-118.13462,34.08776,0],[-118.13462,34.08754,0],[-118.13462,34.08729,0],[-118.13462,34.08726,0],[-118.13462,34.08718,0],[-118.13462,34.08713,0],[-118.13462,34.0871,0],[-118.13462,34.08705,0],[-118.13461,34.08693,0],[-118.13461,34.08666,0],[-118.1346,34.08575,0],[-118.13459,34.08534,0],[-118.13459,34.08516,0],[-118.13459,34.08515,0],[-118.13459,34.08513,0],[-118.13459,34.08511,0],[-118.13458,34.08508,0],[-118.13457,34.08505,0],[-118.13457,34.08502,0],[-118.13457,34.085,0],[-118.13457,34.08494,0],[-118.13457,34.08489,0],[-118.13457,34.08487,0],[-118.13457,34.08482,0],[-118.13456,34.08471,0],[-118.13457,34.08466,0],[-118.13457,34.08464,0],[-118.13457,34.08446,0],[-118.13456,34.08439,0],[-118.13456,34.08438,0],[-118.13456,34.0843,0],[-118.13457,34.08415,0],[-118.13457,34.08413,0],[-118.13457,34.08405,0],[-118.13457,34.08401,0],[-118.13456,34.08372,0],[-118.13457,34.08364,0],[-118.13456,34.08284,0],[-118.13456,34.08281,0],[-118.13456,34.08273,0],[-118.13456,34.08262,0],[-118.13454,34.08114,0],[-118.13454,34.08104,0],[-118.13454,34.08088,0],[-118.13455,34.0808,0],[-118.13454,34.08024,0],[-118.13454,34.08011,0],[-118.13454,34.08007,0],[-118.13454,34.08003,0],[-118.13454,34.07991,0],[-118.13453,34.07983,0],[-118.13453,34.07973,0],[-118.13453,34.07967,0],[-118.13453,34.07965,0],[-118.13453,34.07962,0],[-118.13453,34.07958,0],[-118.13453,34.07954,0],[-118.13453,34.07943,0],[-118.13453,34.07932,0],[-118.13453,34.07929,0],[-118.13454,34.07921,0],[-118.13454,34.07919,0],[-118.13454,34.07912,0],[-118.13454,34.07909,0],[-118.13454,34.07905,0],[-118.13454,34.07898,0],[-118.13454,34.07891,0],[-118.13454,34.07875,0],[-118.13454,34.0786,0],[-118.13454,34.0785,0],[-118.13454,34.07842,0],[-118.13454,34.07836,0],[-118.13454,34.07829,0],[-118.13453,34.07797,0],[-118.13451,34.07786,0],[-118.13451,34.07782,0],[-118.13451,34.07773,0],[-118.13451,34.07771,0],[-118.13451,34.07757,0],[-118.13451,34.07754,0],[-118.13451,34.07746,0],[-118.13451,34.07739,0],[-118.13451,34.07729,0],[-118.1345,34.07697,0],[-118.1345,34.07603,0],[-118.13449,34.07592,0],[-118.13449,34.07581,0],[-118.13449,34.07554,0],[-118.13449,34.0751,0],[-118.13448,34.07502,0],[-118.13448,34.07493,0],[-118.13448,34.07487,0],[-118.13448,34.07468,0],[-118.13449,34.0745,0],[-118.13449,34.07447,0],[-118.13449,34.07436,0],[-118.13449,34.07425,0],[-118.13449,34.07405,0],[-118.13449,34.07399,0],[-118.13453,34.07394,0],[-118.13454,34.07383,0],[-118.13453,34.07375,0],[-118.13453,34.07361,0],[-118.13453,34.07344,0],[-118.13453,34.07324,0],[-118.13453,34.07311,0],[-118.13452,34.07306,0],[-118.13452,34.07281,0],[-118.13452,34.0727,0],[-118.13452,34.07251,0],[-118.13452,34.07235,0],[-118.13451,34.07189,0],[-118.13452,34.07182,0],[-118.13451,34.07177,0],[-118.13451,34.0717,0],[-118.13451,34.07165,0],[-118.13451,34.07153,0],[-118.13451,34.07127,0],[-118.13451,34.07119,0],[-118.13451,34.07112,0],[-118.13451,34.07096,0],[-118.13451,34.07075,0],[-118.13452,34.07057,0],[-118.1345,34.07038,0],[-118.1345,34.07031,0],[-118.1345,34.0703,0],[-118.1345,34.07012,0],[-118.1345,34.06999,0],[-118.1345,34.06988,0],[-118.13449,34.06975,0],[-118.13448,34.06959,0],[-118.13447,34.06949,0],[-118.13446,34.0694,0],[-118.13446,34.06938,0],[-118.13445,34.06926,0],[-118.13444,34.06912,0],[-118.13444,34.06908,0],[-118.13444,34.0689,0],[-118.13444,34.0688,0],[-118.13443,34.0686,0],[-118.13443,34.06842,0],[-118.13443,34.0683,0],[-118.13443,34.06821,0],[-118.13443,34.0682,0],[-118.13437,34.06811,0],[-118.13436,34.06806,0],[-118.13436,34.06787,0],[-118.13436,34.06781,0],[-118.13435,34.06769,0],[-118.13435,34.06766,0],[-118.13435,34.06761,0],[-118.13441,34.0675,0],[-118.1344,34.06714,0],[-118.1344,34.06704,0],[-118.1344,34.06686,0],[-118.1344,34.0668,0],[-118.1344,34.06674,0],[-118.1344,34.06671,0],[-118.1344,34.06664,0],[-118.1344,34.06661,0],[-118.13439,34.0665,0],[-118.13439,34.06645,0],[-118.13439,34.06633,0],[-118.13439,34.06624,0],[-118.13439,34.06613,0],[-118.13433,34.06607,0],[-118.13433,34.06574,0],[-118.13433,34.06561,0],[-118.13433,34.0651,0],[-118.13432,34.06477,0],[-118.13432,34.06451,0],[-118.13432,34.06435,0],[-118.13432,34.06423,0],[-118.13431,34.06391,0],[-118.1343,34.06355,0],[-118.1343,34.06337,0],[-118.13416,34.06337,0],[-118.13412,34.06337,0],[-118.13408,34.06337,0],[-118.13402,34.06337,0],[-118.13383,34.06338,0],[-118.13363,34.06339,0]]},"properties":{"name":"Directions from 610 South Arroyo Parkway, Pasadena, California to 771 W Garvey Ave, Monterey Park, CA 91754","styleUrl":"#line-1267FF-5000-nodesc","stroke-opacity":1,"stroke":"#1267ff","stroke-width":5}},{"type":"Feature","geometry":{"type":"Point","coordinates":[-118.14693,34.13534,0]},"properties":{"name":"610 South Arroyo Parkway, Pasadena, California","styleUrl":"#icon-1899-DB4436-nodesc","label-scale":0,"icon-opacity":1,"icon-color":"#db4436","icon-scale":1,"icon-offset":[32,64],"icon-offset-units":["pixels","insetPixels"],"icon":"https://www.gstatic.com/mapspro/images/stock/503-wht-blank_maps.png"}},{"type":"Feature","geometry":{"type":"Point","coordinates":[-118.133634,34.063387,0]},"properties":{"name":"771 W Garvey Ave, Monterey Park, CA 91754","styleUrl":"#icon-1899-DB4436-nodesc","label-scale":0,"icon-opacity":1,"icon-color":"#db4436","icon-scale":1,"icon-offset":[32,64],"icon-offset-units":["pixels","insetPixels"],"icon":"https://www.gstatic.com/mapspro/images/stock/503-wht-blank_maps.png"}},{"type":"Feature","geometry":{"type":"LineString","coordinates":[[-118.13363,34.06339,0],[-118.13363,34.06297,0],[-118.13361,34.06268,0],[-118.13361,34.0626,0],[-118.1336,34.06253,0],[-118.13386,34.06254,0],[-118.1363,34.06253,0],[-118.13639,34.06252,0],[-118.13785,34.06252,0],[-118.13807,34.0625,0],[-118.13855,34.06248,0],[-118.13907,34.06244,0],[-118.13933,34.06243,0],[-118.13935,34.06242,0],[-118.13966,34.0624,0],[-118.13996,34.06235,0],[-118.14009,34.06232,0],[-118.14029,34.06226,0],[-118.14038,34.06224,0],[-118.14061,34.06216,0],[-118.14092,34.06203,0],[-118.14095,34.06201,0],[-118.14096,34.062,0],[-118.14111,34.06193,0],[-118.14121,34.06186,0],[-118.14182,34.06148,0],[-118.14201,34.06135,0],[-118.14204,34.06134,0],[-118.14213,34.06127,0],[-118.14223,34.06122,0],[-118.14271,34.06091,0],[-118.14273,34.0609,0],[-118.14343,34.06044,0],[-118.14372,34.06027,0],[-118.14397,34.06016,0],[-118.14429,34.06006,0],[-118.14457,34.06001,0],[-118.14465,34.06001,0],[-118.14496,34.05999,0],[-118.14539,34.06004,0],[-118.14549,34.06006,0],[-118.14552,34.06007,0],[-118.14554,34.06007,0],[-118.14559,34.06008,0],[-118.14567,34.06011,0],[-118.14575,34.06013,0],[-118.14593,34.0602,0],[-118.14622,34.06035,0],[-118.1464,34.06047,0],[-118.14649,34.06054,0],[-118.14655,34.06058,0],[-118.1467,34.0607,0],[-118.14674,34.06072,0],[-118.14699,34.06091,0],[-118.14703,34.06093,0],[-118.1471,34.06098,0],[-118.14722,34.06105,0],[-118.14727,34.06107,0],[-118.14748,34.06119,0],[-118.14755,34.06122,0],[-118.14766,34.06128,0],[-118.14775,34.06131,0],[-118.14783,34.06135,0],[-118.14784,34.06135,0],[-118.14794,34.06139,0],[-118.14798,34.06141,0],[-118.14832,34.06153,0],[-118.14888,34.06167,0],[-118.1492,34.06171,0],[-118.14922,34.06172,0],[-118.14937,34.06173,0],[-118.14939,34.06174,0],[-118.14946,34.06174,0],[-118.14958,34.06175,0],[-118.14965,34.06175,0],[-118.14972,34.06176,0],[-118.14991,34.06176,0],[-118.15,34.06177,0],[-118.15028,34.06177,0],[-118.1504,34.06178,0],[-118.15065,34.06178,0],[-118.15075,34.06179,0],[-118.15092,34.06179,0],[-118.15101,34.0618,0],[-118.1511,34.0618,0],[-118.15134,34.06184,0],[-118.15144,34.06185,0],[-118.15197,34.06199,0],[-118.1524,34.06217,0],[-118.15251,34.06223,0],[-118.15253,34.06225,0],[-118.15261,34.06229,0],[-118.15269,34.06235,0],[-118.15277,34.0624,0],[-118.15278,34.0624,0],[-118.15279,34.06241,0],[-118.15281,34.06242,0],[-118.15282,34.06243,0],[-118.15292,34.0625,0],[-118.15295,34.06251,0],[-118.15319,34.06265,0],[-118.1533,34.06276,0],[-118.15333,34.06278,0],[-118.15337,34.06283,0],[-118.15341,34.06287,0],[-118.15342,34.06289,0],[-118.15344,34.06291,0],[-118.15346,34.06294,0],[-118.15352,34.06306,0],[-118.15362,34.0632,0],[-118.15363,34.06321,0],[-118.15389,34.06357,0],[-118.15397,34.06367,0],[-118.15416,34.06395,0],[-118.15441,34.06428,0],[-118.15442,34.0643,0],[-118.1546,34.06454,0],[-118.15462,34.06456,0],[-118.15469,34.06467,0],[-118.15474,34.06473,0],[-118.15493,34.065,0],[-118.15495,34.06502,0],[-118.15498,34.06507,0],[-118.15502,34.06512,0],[-118.15505,34.06515,0],[-118.15506,34.06517,0],[-118.15507,34.06518,0],[-118.15515,34.06524,0],[-118.15516,34.06525,0],[-118.15522,34.06528,0],[-118.15522,34.06529,0],[-118.15527,34.06531,0],[-118.15533,34.06535,0],[-118.15544,34.0654,0],[-118.15549,34.06541,0],[-118.15554,34.06543,0],[-118.15561,34.06544,0],[-118.15582,34.06544,0],[-118.15611,34.0654,0],[-118.1562,34.06533,0],[-118.15647,34.06518,0],[-118.1565,34.06517,0],[-118.1567,34.06507,0],[-118.15671,34.06506,0],[-118.15682,34.06501,0],[-118.15745,34.06469,0],[-118.15751,34.06465,0],[-118.15765,34.06458,0],[-118.15768,34.06457,0],[-118.15774,34.06453,0],[-118.15789,34.06445,0],[-118.1579,34.06445,0],[-118.15887,34.06393,0],[-118.1589,34.06391,0],[-118.15924,34.06373,0],[-118.15925,34.06372,0],[-118.15927,34.06371,0],[-118.15936,34.06364,0],[-118.15939,34.06363,0],[-118.1594,34.06361,0],[-118.15942,34.0636,0],[-118.15954,34.0635,0],[-118.15971,34.06334,0],[-118.15973,34.06333,0],[-118.16,34.06307,0],[-118.1601,34.06296,0],[-118.16023,34.06284,0],[-118.16081,34.06235,0],[-118.16122,34.06207,0],[-118.16126,34.06205,0],[-118.16139,34.06196,0],[-118.16156,34.06186,0],[-118.16157,34.06185,0],[-118.16173,34.06174,0],[-118.16176,34.06173,0],[-118.16203,34.06155,0],[-118.16233,34.06137,0],[-118.16253,34.06122,0],[-118.16263,34.0612,0],[-118.16264,34.0612,0],[-118.16271,34.06116,0],[-118.16286,34.06105,0],[-118.16291,34.06102,0],[-118.16325,34.06075,0],[-118.16344,34.06054,0],[-118.16348,34.06051,0],[-118.16383,34.06018,0],[-118.16401,34.06005,0],[-118.16414,34.05997,0],[-118.16433,34.05988,0],[-118.16446,34.05983,0],[-118.16476,34.05974,0],[-118.16485,34.05973,0],[-118.16504,34.05973,0],[-118.16526,34.05975,0],[-118.16543,34.05978,0],[-118.16553,34.05981,0],[-118.16558,34.05982,0],[-118.16568,34.05985,0],[-118.16581,34.05991,0],[-118.16585,34.05992,0],[-118.16592,34.05996,0],[-118.16594,34.05996,0],[-118.16595,34.05997,0],[-118.16596,34.05997,0],[-118.16596,34.05998,0],[-118.16669,34.06031,0],[-118.16691,34.06042,0],[-118.16682,34.06055,0],[-118.16674,34.06065,0],[-118.16671,34.0607,0],[-118.16666,34.06074,0],[-118.1666,34.06078,0],[-118.16656,34.0608,0],[-118.16652,34.06081,0],[-118.1665,34.06081,0],[-118.16647,34.06082,0],[-118.16644,34.06082,0],[-118.16639,34.06081,0],[-118.16634,34.06081,0],[-118.1663,34.0608,0],[-118.16622,34.06077,0],[-118.16618,34.06076,0],[-118.16615,34.06074,0],[-118.16613,34.06073,0],[-118.16611,34.06073,0],[-118.16609,34.06071,0],[-118.16602,34.06067,0],[-118.16597,34.06063,0],[-118.16589,34.06055,0],[-118.16588,34.06052,0],[-118.16586,34.0605,0],[-118.16583,34.06045,0],[-118.16576,34.06028,0],[-118.16575,34.06024,0],[-118.16576,34.0594,0],[-118.16575,34.05928,0],[-118.16575,34.05915,0],[-118.16574,34.0591,0],[-118.16574,34.05902,0],[-118.16572,34.05876,0],[-118.1657,34.05863,0],[-118.16569,34.0585,0],[-118.16563,34.05811,0],[-118.1656,34.05799,0],[-118.16559,34.05793,0],[-118.16559,34.05792,0],[-118.16558,34.05791,0],[-118.16558,34.0579,0],[-118.16547,34.05779,0],[-118.16542,34.05757,0],[-118.16532,34.05726,0],[-118.16512,34.05677,0],[-118.16509,34.05671,0],[-118.16472,34.0558,0],[-118.16467,34.0557,0],[-118.16458,34.05548,0],[-118.16457,34.05544,0],[-118.16452,34.05532,0],[-118.16444,34.05507,0],[-118.16441,34.05495,0],[-118.16441,34.05494,0],[-118.16437,34.05481,0],[-118.16433,34.05456,0],[-118.1643,34.05443,0],[-118.16428,34.05418,0],[-118.16427,34.05415,0],[-118.16427,34.05404,0],[-118.16426,34.05391,0],[-118.16426,34.05365,0],[-118.16429,34.05328,0],[-118.16435,34.05291,0],[-118.16435,34.05287,0],[-118.16436,34.0528,0],[-118.16443,34.05254,0],[-118.16446,34.05246,0],[-118.16449,34.05235,0],[-118.16454,34.05221,0],[-118.16456,34.05213,0],[-118.16467,34.0519,0],[-118.16471,34.0518,0],[-118.16484,34.05155,0],[-118.16488,34.05149,0],[-118.16489,34.05146,0],[-118.16516,34.05103,0],[-118.16521,34.05098,0],[-118.16525,34.05091,0],[-118.16529,34.05086,0],[-118.16535,34.0508,0],[-118.16564,34.05047,0],[-118.1657,34.05039,0],[-118.16623,34.04978,0],[-118.1663,34.04969,0],[-118.16792,34.04782,0],[-118.16799,34.04773,0],[-118.16805,34.04767,0],[-118.16812,34.04758,0],[-118.16877,34.04682,0],[-118.16884,34.04675,0],[-118.16919,34.04633,0],[-118.16955,34.0458,0],[-118.16963,34.04566,0],[-118.16972,34.04553,0],[-118.16987,34.04521,0],[-118.16995,34.045,0],[-118.16999,34.04487,0],[-118.17003,34.0447,0],[-118.17008,34.04454,0],[-118.17008,34.04453,0],[-118.1701,34.04446,0],[-118.17017,34.04414,0],[-118.17023,34.04371,0],[-118.17023,34.04362,0],[-118.17024,34.04353,0],[-118.17023,34.04177,0],[-118.17022,34.04161,0],[-118.17019,34.03991,0],[-118.17019,34.03867,0],[-118.17018,34.0384,0],[-118.17017,34.03628,0],[-118.17016,34.03617,0],[-118.17016,34.03602,0],[-118.17017,34.03599,0],[-118.17016,34.03581,0],[-118.17016,34.0351,0],[-118.17015,34.03503,0],[-118.17015,34.03408,0],[-118.17019,34.03363,0],[-118.17028,34.03313,0],[-118.17034,34.0329,0],[-118.17046,34.03253,0],[-118.17049,34.03247,0],[-118.17053,34.03236,0],[-118.1707,34.032,0],[-118.17073,34.03192,0],[-118.17173,34.02968,0],[-118.17175,34.02965,0],[-118.17194,34.02923,0],[-118.17211,34.02882,0],[-118.17218,34.02863,0],[-118.17221,34.02853,0],[-118.17227,34.02837,0],[-118.17231,34.02824,0],[-118.17236,34.028,0],[-118.17241,34.02763,0],[-118.17243,34.02733,0],[-118.17243,34.02678,0],[-118.17244,34.0266,0],[-118.17243,34.02559,0],[-118.17244,34.02551,0],[-118.17246,34.02514,0],[-118.1725,34.02477,0],[-118.17256,34.0244,0],[-118.17264,34.02404,0],[-118.17269,34.02386,0],[-118.17269,34.02383,0],[-118.17271,34.02374,0],[-118.17274,34.02364,0],[-118.17275,34.02362,0],[-118.17275,34.02361,0],[-118.17332,34.02163,0],[-118.17332,34.02162,0],[-118.17342,34.02124,0],[-118.17342,34.02122,0],[-118.17344,34.02111,0],[-118.17345,34.02108,0],[-118.17348,34.02089,0],[-118.17349,34.02077,0],[-118.17349,34.02071,0],[-118.17351,34.02059,0],[-118.17351,34.02028,0],[-118.17354,34.01975,0],[-118.17354,34.01726,0],[-118.17352,34.01706,0],[-118.17348,34.01686,0],[-118.17348,34.01683,0],[-118.17347,34.01682,0],[-118.17346,34.01676,0],[-118.1734,34.01657,0],[-118.1734,34.01656,0],[-118.17331,34.01635,0],[-118.17291,34.01553,0],[-118.17284,34.01541,0],[-118.17279,34.0153,0],[-118.17265,34.01494,0],[-118.1726,34.01479,0],[-118.17255,34.01459,0],[-118.17253,34.01443,0],[-118.17253,34.01436,0],[-118.17252,34.01431,0],[-118.17247,34.01295,0],[-118.17248,34.01241,0],[-118.17247,34.00863,0],[-118.17248,34.00846,0],[-118.17248,34.00811,0],[-118.17252,34.0076,0],[-118.17252,34.00752,0],[-118.17262,34.00673,0],[-118.17263,34.00671,0],[-118.17272,34.00618,0],[-118.17285,34.00556,0],[-118.17301,34.00493,0],[-118.17311,34.00463,0],[-118.17312,34.00458,0],[-118.17321,34.00431,0],[-118.17322,34.00429,0],[-118.17334,34.00396,0],[-118.17363,34.00324,0],[-118.17398,34.00249,0],[-118.17442,34.00166,0],[-118.17496,34.00076,0],[-118.17536,34.00015,0],[-118.17537,34.00014,0],[-118.17584,33.99944,0],[-118.17589,33.99938,0],[-118.17598,33.99924,0],[-118.17607,33.99912,0],[-118.17644,33.99854,0],[-118.17647,33.9985,0],[-118.17658,33.99829,0],[-118.17659,33.99826,0],[-118.17675,33.99792,0],[-118.17688,33.99756,0],[-118.17696,33.9973,0],[-118.17698,33.99719,0],[-118.17699,33.99717,0],[-118.177,33.99711,0],[-118.17701,33.99709,0],[-118.17701,33.99706,0],[-118.17704,33.99688,0],[-118.17707,33.99675,0],[-118.17711,33.9963,0],[-118.17711,33.99595,0],[-118.1771,33.99587,0],[-118.1771,33.99576,0],[-118.17704,33.99538,0],[-118.17704,33.99534,0],[-118.17695,33.99495,0],[-118.1769,33.99478,0],[-118.17683,33.99459,0],[-118.17683,33.99458,0],[-118.17682,33.99454,0],[-118.17671,33.99429,0],[-118.17657,33.99392,0],[-118.17646,33.99373,0],[-118.17646,33.99372,0],[-118.17639,33.9936,0],[-118.17631,33.99348,0],[-118.17625,33.99337,0],[-118.17619,33.9933,0],[-118.176,33.99304,0],[-118.17599,33.99303,0],[-118.17591,33.99292,0],[-118.17577,33.99276,0],[-118.1757,33.99269,0],[-118.17563,33.99261,0],[-118.17521,33.99222,0],[-118.17452,33.99167,0],[-118.17441,33.99159,0],[-118.1743,33.9915,0],[-118.17429,33.9915,0],[-118.17361,33.99096,0],[-118.17328,33.99067,0],[-118.17318,33.99059,0],[-118.17265,33.9901,0],[-118.17242,33.98987,0],[-118.17236,33.9898,0],[-118.17196,33.98939,0],[-118.17173,33.98912,0],[-118.17169,33.98908,0],[-118.17124,33.98854,0],[-118.17073,33.98787,0],[-118.17065,33.98775,0],[-118.17057,33.98765,0],[-118.17034,33.98732,0],[-118.17004,33.98686,0],[-118.16983,33.98651,0],[-118.16975,33.98639,0],[-118.16947,33.98589,0],[-118.16943,33.9858,0],[-118.1693,33.98556,0],[-118.16912,33.98519,0],[-118.16891,33.98471,0],[-118.16886,33.98458,0],[-118.16881,33.98447,0],[-118.16841,33.98333,0],[-118.16833,33.98307,0],[-118.16828,33.98294,0],[-118.16824,33.98281,0],[-118.16817,33.98262,0],[-118.16807,33.9823,0],[-118.16804,33.98217,0],[-118.16793,33.98179,0],[-118.16782,33.98127,0],[-118.16778,33.98101,0],[-118.16775,33.98088,0],[-118.16767,33.98035,0],[-118.16766,33.98023,0],[-118.16764,33.98009,0],[-118.16763,33.97997,0],[-118.16761,33.97983,0],[-118.16756,33.97918,0],[-118.16756,33.97904,0],[-118.16754,33.97877,0],[-118.16754,33.97785,0],[-118.16755,33.97772,0],[-118.16755,33.97759,0],[-118.16756,33.97745,0],[-118.16756,33.97732,0],[-118.1676,33.97679,0],[-118.16762,33.97666,0],[-118.16763,33.97653,0],[-118.16769,33.97604,0],[-118.16769,33.97602,0],[-118.16781,33.97523,0],[-118.16782,33.9751,0],[-118.16785,33.97496,0],[-118.16786,33.97482,0],[-118.16796,33.97417,0],[-118.16797,33.97405,0],[-118.16803,33.97365,0],[-118.16804,33.97352,0],[-118.16806,33.97339,0],[-118.16808,33.97312,0],[-118.16809,33.97281,0],[-118.16818,33.9727,0],[-118.16819,33.9727,0],[-118.16823,33.97235,0],[-118.16825,33.97204,0],[-118.16823,33.97133,0],[-118.16817,33.97089,0],[-118.1682,33.97081,0],[-118.16821,33.97077,0],[-118.16821,33.97073,0],[-118.16824,33.97056,0],[-118.16824,33.97054,0],[-118.16827,33.97044,0],[-118.16832,33.97032,0],[-118.16838,33.9702,0],[-118.16851,33.96997,0],[-118.16852,33.96996,0],[-118.16892,33.96927,0],[-118.16895,33.9692,0],[-118.16898,33.9691,0],[-118.16905,33.96858,0],[-118.16907,33.96853,0],[-118.16907,33.96851,0],[-118.16909,33.96847,0],[-118.16914,33.96842,0],[-118.1692,33.96838,0],[-118.16923,33.96837,0],[-118.16938,33.96834,0],[-118.17101,33.96851,0],[-118.17103,33.96852,0],[-118.17111,33.96852,0],[-118.17113,33.96853,0],[-118.1712,33.96853,0],[-118.1721,33.96863,0],[-118.17213,33.96863,0],[-118.17263,33.96869,0],[-118.1728,33.96876,0],[-118.17369,33.96886,0],[-118.17374,33.96886,0],[-118.17409,33.9689,0],[-118.17413,33.9689,0],[-118.17416,33.96891,0],[-118.17422,33.96891,0],[-118.17505,33.969,0],[-118.17508,33.96901,0],[-118.1752,33.96901,0],[-118.17534,33.96897,0],[-118.17624,33.96906,0],[-118.17636,33.96908,0],[-118.17642,33.96908,0],[-118.17665,33.96911,0],[-118.17672,33.96916,0],[-118.17686,33.96918,0],[-118.177,33.96919,0],[-118.17724,33.96922,0],[-118.17749,33.96924,0],[-118.17755,33.96925,0],[-118.17758,33.96925,0],[-118.1777,33.96927,0],[-118.17824,33.96932,0],[-118.17827,33.96933,0],[-118.17845,33.96934,0],[-118.17876,33.96938,0],[-118.17891,33.96939,0],[-118.17895,33.9694,0],[-118.17902,33.9694,0],[-118.17921,33.96943,0],[-118.17949,33.96945,0],[-118.1798,33.96949,0],[-118.17985,33.96945,0],[-118.18038,33.9695,0],[-118.18078,33.96955,0],[-118.18086,33.96955,0],[-118.18098,33.96957,0],[-118.18113,33.96958,0],[-118.18158,33.96963,0],[-118.18163,33.96964,0],[-118.18169,33.96964,0],[-118.18267,33.96974,0],[-118.18272,33.96975,0],[-118.1828,33.96975,0],[-118.18292,33.96977,0],[-118.18298,33.96977,0],[-118.18486,33.96997,0],[-118.18489,33.96998,0],[-118.18496,33.96998,0],[-118.18525,33.97001,0],[-118.18536,33.97003,0],[-118.1862,33.97011,0],[-118.18621,33.97012,0],[-118.18623,33.97012,0],[-118.18623,33.96971,0],[-118.18624,33.96967,0],[-118.18624,33.96963,0],[-118.1863,33.96919,0],[-118.18633,33.96909,0],[-118.18633,33.96907,0],[-118.1863,33.96902,0],[-118.18629,33.96901,0],[-118.18628,33.96901,0],[-118.18628,33.969,0],[-118.18627,33.969,0],[-118.18617,33.96898,0],[-118.18611,33.96896,0],[-118.1861,33.96896,0],[-118.18609,33.96895,0],[-118.18608,33.96895,0],[-118.18608,33.96894,0],[-118.18606,33.96888,0],[-118.18602,33.96868,0],[-118.18602,33.96865,0],[-118.18608,33.96841,0],[-118.18612,33.9683,0],[-118.18616,33.96806,0],[-118.18618,33.96799,0],[-118.18689,33.96807,0],[-118.18696,33.96807,0],[-118.18693,33.96822,0],[-118.18691,33.96838,0]]},"properties":{"name":"Directions from 771 W Garvey Ave, Monterey Park, CA 91754 to 7300 Atlantic Ave, Cudahy, CA 90201","styleUrl":"#line-1267FF-5000-nodesc","stroke-opacity":1,"stroke":"#1267ff","stroke-width":5}},{"type":"Feature","geometry":{"type":"Point","coordinates":[-118.133634,34.063387,0]},"properties":{"name":"771 W Garvey Ave, Monterey Park, CA 91754","styleUrl":"#icon-1899-DB4436-nodesc","label-scale":0,"icon-opacity":1,"icon-color":"#db4436","icon-scale":1,"icon-offset":[32,64],"icon-offset-units":["pixels","insetPixels"],"icon":"https://www.gstatic.com/mapspro/images/stock/503-wht-blank_maps.png"}},{"type":"Feature","geometry":{"type":"Point","coordinates":[-118.186906,33.968381,0]},"properties":{"name":"7300 Atlantic Ave, Cudahy, CA 90201","styleUrl":"#icon-1899-DB4436-nodesc","label-scale":0,"icon-opacity":1,"icon-color":"#db4436","icon-scale":1,"icon-offset":[32,64],"icon-offset-units":["pixels","insetPixels"],"icon":"https://www.gstatic.com/mapspro/images/stock/503-wht-blank_maps.png"}},{"type":"Feature","geometry":{"type":"LineString","coordinates":[[-118.1876,33.9684,0],[-118.1876,33.96842,0],[-118.18763,33.96851,0],[-118.18764,33.96856,0],[-118.18764,33.96858,0],[-118.18765,33.9686,0],[-118.18773,33.96893,0],[-118.18779,33.96914,0],[-118.18788,33.96951,0],[-118.1879,33.96956,0],[-118.18803,33.97012,0],[-118.18805,33.97026,0],[-118.18805,33.97031,0],[-118.18787,33.97029,0],[-118.18783,33.97029,0],[-118.1878,33.97028,0],[-118.18724,33.97022,0],[-118.18708,33.97021,0],[-118.18704,33.9702,0],[-118.18696,33.97019,0],[-118.18686,33.97019,0],[-118.18636,33.97013,0],[-118.18621,33.97012,0],[-118.1862,33.97011,0],[-118.18618,33.97011,0],[-118.18536,33.97003,0],[-118.18525,33.97001,0],[-118.18496,33.96998,0],[-118.18489,33.96998,0],[-118.18486,33.96997,0],[-118.18298,33.96977,0],[-118.18292,33.96977,0],[-118.1828,33.96975,0],[-118.18272,33.96975,0],[-118.18267,33.96974,0],[-118.18169,33.96964,0],[-118.18163,33.96964,0],[-118.18158,33.96963,0],[-118.18113,33.96958,0],[-118.18098,33.96957,0],[-118.18086,33.96955,0],[-118.18078,33.96955,0],[-118.18038,33.9695,0],[-118.17985,33.96945,0],[-118.17982,33.9694,0],[-118.17902,33.96931,0],[-118.17898,33.96931,0],[-118.17893,33.9693,0],[-118.17887,33.9693,0],[-118.17883,33.96929,0],[-118.17865,33.96927,0],[-118.1786,33.96927,0],[-118.17844,33.96925,0],[-118.17839,33.96925,0],[-118.17768,33.96917,0],[-118.17756,33.96915,0],[-118.17737,33.96914,0],[-118.17721,33.96912,0],[-118.17695,33.9691,0],[-118.17673,33.96907,0],[-118.17665,33.96911,0],[-118.17642,33.96908,0],[-118.17636,33.96908,0],[-118.17624,33.96906,0],[-118.17609,33.96905,0],[-118.17586,33.96902,0],[-118.17534,33.96897,0],[-118.17522,33.9689,0],[-118.17498,33.96887,0],[-118.17494,33.96887,0],[-118.17491,33.96886,0],[-118.17454,33.96883,0],[-118.17451,33.96882,0],[-118.17415,33.96879,0],[-118.17316,33.96868,0],[-118.17309,33.96868,0],[-118.17285,33.96865,0],[-118.17263,33.96869,0],[-118.17213,33.96863,0],[-118.1721,33.96863,0],[-118.1712,33.96853,0],[-118.17113,33.96853,0],[-118.17111,33.96852,0],[-118.17103,33.96852,0],[-118.17101,33.96851,0],[-118.16938,33.96834,0],[-118.16929,33.96822,0],[-118.16926,33.9682,0],[-118.16921,33.96813,0],[-118.16919,33.96809,0],[-118.16917,33.96806,0],[-118.16917,33.96803,0],[-118.16916,33.96799,0],[-118.16916,33.96792,0],[-118.16917,33.96788,0],[-118.16922,33.96753,0],[-118.16922,33.96739,0],[-118.16921,33.96736,0],[-118.16921,33.96732,0],[-118.1692,33.96729,0],[-118.16919,33.96727,0],[-118.16918,33.96723,0],[-118.16915,33.96717,0],[-118.16911,33.96711,0],[-118.16904,33.96702,0],[-118.16903,33.967,0],[-118.16899,33.96696,0],[-118.16898,33.96693,0],[-118.16896,33.96692,0],[-118.16895,33.9669,0],[-118.16891,33.96684,0],[-118.16887,33.96679,0],[-118.16882,33.96671,0],[-118.16879,33.96663,0],[-118.16877,33.9666,0],[-118.16876,33.96658,0],[-118.16873,33.96647,0],[-118.16872,33.96641,0],[-118.16872,33.96629,0],[-118.16871,33.96626,0],[-118.16872,33.96623,0],[-118.16872,33.96616,0],[-118.16873,33.96611,0],[-118.16873,33.96607,0],[-118.16874,33.96602,0],[-118.16875,33.966,0],[-118.16875,33.96596,0],[-118.16877,33.96592,0],[-118.16878,33.96587,0],[-118.16876,33.96581,0],[-118.16887,33.96556,0],[-118.16899,33.96526,0],[-118.16893,33.9651,0],[-118.16898,33.96499,0],[-118.169,33.96496,0],[-118.16903,33.96489,0],[-118.16906,33.96484,0],[-118.16912,33.96471,0],[-118.16918,33.9646,0],[-118.16929,33.96436,0],[-118.16929,33.96435,0],[-118.16935,33.96424,0],[-118.16956,33.96373,0],[-118.16971,33.96329,0],[-118.16976,33.96309,0],[-118.1698,33.96297,0],[-118.16982,33.96285,0],[-118.16991,33.96244,0],[-118.16995,33.96218,0],[-118.16995,33.96214,0],[-118.16997,33.96205,0],[-118.17042,33.95904,0],[-118.17047,33.95865,0],[-118.17048,33.95851,0],[-118.17052,33.95825,0],[-118.17053,33.95812,0],[-118.17054,33.95808,0],[-118.17056,33.95786,0],[-118.17059,33.95764,0],[-118.17061,33.95733,0],[-118.17063,33.9572,0],[-118.17072,33.95602,0],[-118.17072,33.95599,0],[-118.17073,33.95588,0],[-118.17073,33.95575,0],[-118.17075,33.95548,0],[-118.17075,33.95535,0],[-118.17076,33.95522,0],[-118.17076,33.95509,0],[-118.17077,33.95496,0],[-118.17077,33.95469,0],[-118.17078,33.95456,0],[-118.17078,33.95334,0],[-118.17076,33.95271,0],[-118.17073,33.95232,0],[-118.17073,33.95219,0],[-118.1705,33.94889,0],[-118.1705,33.94876,0],[-118.17049,33.94863,0],[-118.17049,33.94823,0],[-118.1705,33.9481,0],[-118.1705,33.94797,0],[-118.17052,33.9477,0],[-118.17058,33.94731,0],[-118.17059,33.94718,0],[-118.1707,33.94642,0],[-118.1707,33.9464,0],[-118.17104,33.94376,0],[-118.1711,33.94337,0],[-118.17111,33.94324,0],[-118.17117,33.94284,0],[-118.17118,33.94271,0],[-118.17122,33.94245,0],[-118.17123,33.94232,0],[-118.17129,33.94193,0],[-118.1713,33.9418,0],[-118.17136,33.9414,0],[-118.17137,33.94127,0],[-118.17141,33.941,0],[-118.17142,33.9409,0],[-118.17143,33.94088,0],[-118.17147,33.94062,0],[-118.17156,33.94023,0],[-118.17168,33.93985,0],[-118.17178,33.93959,0],[-118.17183,33.93948,0],[-118.17188,33.93935,0],[-118.17206,33.93899,0],[-118.17227,33.93863,0],[-118.17249,33.9383,0],[-118.1725,33.93828,0],[-118.17276,33.93795,0],[-118.17279,33.9379,0],[-118.17286,33.93783,0],[-118.17314,33.93751,0],[-118.17324,33.93741,0],[-118.17334,33.93732,0],[-118.17344,33.93722,0],[-118.17355,33.93712,0],[-118.17366,33.93703,0],[-118.17376,33.93694,0],[-118.17399,33.93676,0],[-118.17437,33.93648,0],[-118.1749,33.93612,0],[-118.17503,33.93604,0],[-118.17514,33.93595,0],[-118.17527,33.93587,0],[-118.176,33.93537,0],[-118.17658,33.93493,0],[-118.17701,33.93454,0],[-118.1771,33.93444,0],[-118.1773,33.93424,0],[-118.17749,33.93403,0],[-118.17749,33.93402,0],[-118.17756,33.93394,0],[-118.17757,33.93392,0],[-118.17791,33.93347,0],[-118.17803,33.93328,0],[-118.17806,33.93324,0],[-118.17813,33.93313,0],[-118.17819,33.93301,0],[-118.17823,33.93295,0],[-118.17826,33.93289,0],[-118.17827,33.93288,0],[-118.17834,33.93273,0],[-118.17848,33.93246,0],[-118.17865,33.93203,0],[-118.17873,33.93178,0],[-118.17876,33.93171,0],[-118.17878,33.93161,0],[-118.17881,33.93151,0],[-118.17884,33.93138,0],[-118.17886,33.93127,0],[-118.17889,33.93115,0],[-118.17897,33.93062,0],[-118.17899,33.93037,0],[-118.17899,33.93024,0],[-118.179,33.9301,0],[-118.179,33.92984,0],[-118.17896,33.92931,0],[-118.17894,33.92919,0],[-118.17894,33.92918,0],[-118.17892,33.92906,0],[-118.17889,33.92893,0],[-118.17887,33.9288,0],[-118.17884,33.92867,0],[-118.17873,33.92828,0],[-118.17869,33.92816,0],[-118.17868,33.92811,0],[-118.1785,33.92758,0],[-118.17848,33.92753,0],[-118.17844,33.9274,0],[-118.17835,33.92716,0],[-118.17827,33.9269,0],[-118.17826,33.92689,0],[-118.1781,33.92637,0],[-118.17807,33.92625,0],[-118.17807,33.92624,0],[-118.17804,33.92615,0],[-118.17803,33.92611,0],[-118.17801,33.92598,0],[-118.17798,33.92585,0],[-118.17796,33.92572,0],[-118.17795,33.92569,0],[-118.17794,33.92559,0],[-118.17793,33.92558,0],[-118.1779,33.9252,0],[-118.17789,33.92519,0],[-118.17788,33.92495,0],[-118.17788,33.92477,0],[-118.17789,33.9246,0],[-118.17789,33.92443,0],[-118.17793,33.92402,0],[-118.17794,33.92397,0],[-118.17799,33.92362,0],[-118.17802,33.9235,0],[-118.17802,33.92349,0],[-118.17804,33.92336,0],[-118.17834,33.92193,0],[-118.17835,33.92191,0],[-118.17845,33.9214,0],[-118.17859,33.92128,0],[-118.17862,33.92119,0],[-118.17862,33.92116,0],[-118.17865,33.92105,0],[-118.17869,33.92094,0],[-118.17872,33.92081,0],[-118.17876,33.92068,0],[-118.17882,33.92043,0],[-118.17886,33.9203,0],[-118.17889,33.92018,0],[-118.1789,33.92016,0],[-118.17893,33.92005,0],[-118.17895,33.92,0],[-118.17903,33.91974,0],[-118.17926,33.91908,0],[-118.17926,33.91905,0],[-118.17927,33.91903,0],[-118.17932,33.91889,0],[-118.17942,33.91864,0],[-118.17952,33.91848,0],[-118.17952,33.91847,0],[-118.17959,33.91831,0],[-118.17962,33.91822,0],[-118.17965,33.91816,0],[-118.17965,33.91814,0],[-118.17966,33.91814,0],[-118.17967,33.91812,0],[-118.17969,33.91805,0],[-118.17981,33.91776,0],[-118.17981,33.91775,0],[-118.17986,33.91765,0],[-118.17988,33.91758,0],[-118.18002,33.91726,0],[-118.18004,33.91719,0],[-118.18011,33.91702,0],[-118.18014,33.91697,0],[-118.18022,33.91675,0],[-118.18034,33.91648,0],[-118.18034,33.91646,0],[-118.1804,33.91633,0],[-118.18044,33.91621,0],[-118.18045,33.9162,0],[-118.18056,33.91592,0],[-118.1806,33.91585,0],[-118.18062,33.91579,0],[-118.18065,33.91575,0],[-118.18067,33.9157,0],[-118.18082,33.91548,0],[-118.18086,33.91544,0],[-118.18089,33.9154,0],[-118.18093,33.91536,0],[-118.18097,33.9153,0],[-118.18104,33.91523,0],[-118.18108,33.9152,0],[-118.18117,33.91511,0],[-118.18127,33.91503,0],[-118.18133,33.91499,0],[-118.18139,33.91494,0],[-118.1814,33.91494,0],[-118.18145,33.9149,0],[-118.18151,33.91487,0],[-118.18156,33.91483,0],[-118.18161,33.91481,0],[-118.18178,33.91471,0],[-118.18179,33.91471,0],[-118.18183,33.91469,0],[-118.18191,33.91466,0],[-118.18202,33.91461,0],[-118.18209,33.91459,0],[-118.18217,33.91456,0],[-118.18224,33.91454,0],[-118.18228,33.91452,0],[-118.18239,33.9145,0],[-118.18242,33.91449,0],[-118.18259,33.91445,0],[-118.1827,33.91443,0],[-118.18281,33.91442,0],[-118.18288,33.91442,0],[-118.18295,33.91441,0],[-118.18301,33.91441,0],[-118.18309,33.9144,0],[-118.18328,33.9144,0],[-118.18336,33.91441,0],[-118.18344,33.91441,0],[-118.1835,33.91442,0],[-118.18362,33.91443,0],[-118.18377,33.91446,0],[-118.18385,33.91447,0],[-118.18392,33.91449,0],[-118.18419,33.91455,0],[-118.1842,33.91455,0],[-118.18428,33.91457,0],[-118.18434,33.91459,0],[-118.18439,33.9146,0],[-118.18445,33.91462,0],[-118.18453,33.91463,0],[-118.18465,33.91467,0],[-118.18487,33.91473,0],[-118.18504,33.91471,0],[-118.18699,33.91538,0],[-118.18731,33.91548,0],[-118.18998,33.9164,0],[-118.19077,33.9167,0],[-118.19168,33.91707,0],[-118.19452,33.9183,0],[-118.19473,33.9184,0],[-118.20063,33.92098,0],[-118.20084,33.92108,0],[-118.20371,33.92233,0],[-118.20423,33.92257,0],[-118.20678,33.92368,0],[-118.20691,33.92373,0],[-118.20743,33.92397,0],[-118.20765,33.92406,0],[-118.20782,33.92414,0],[-118.20801,33.92422,0],[-118.20806,33.92425,0],[-118.20813,33.92427,0],[-118.20825,33.92433,0],[-118.21109,33.92558,0],[-118.2111,33.92559,0],[-118.2117,33.92585,0],[-118.21191,33.92593,0],[-118.21205,33.92599,0],[-118.2121,33.92602,0],[-118.21344,33.92659,0],[-118.21397,33.92683,0],[-118.21406,33.92688,0],[-118.21415,33.92691,0],[-118.21427,33.92697,0],[-118.21511,33.92734,0],[-118.21522,33.92738,0],[-118.21767,33.92846,0],[-118.21768,33.92846,0],[-118.21866,33.92889,0],[-118.21893,33.92899,0],[-118.21894,33.92899,0],[-118.21961,33.92921,0],[-118.22029,33.9294,0],[-118.22041,33.92942,0],[-118.22057,33.92946,0],[-118.22101,33.92955,0],[-118.22163,33.92966,0],[-118.22228,33.92974,0],[-118.22289,33.92978,0],[-118.22298,33.92979,0],[-118.22349,33.92981,0],[-118.22393,33.92981,0],[-118.22407,33.9298,0],[-118.22423,33.9298,0],[-118.22483,33.92976,0],[-118.22498,33.92974,0],[-118.22513,33.92973,0],[-118.22525,33.92971,0],[-118.22528,33.92971,0],[-118.22559,33.92967,0],[-118.22575,33.92964,0],[-118.22602,33.9296,0],[-118.22664,33.92948,0],[-118.22695,33.9294,0],[-118.2271,33.92937,0],[-118.22755,33.92925,0],[-118.22764,33.92923,0],[-118.22771,33.92922,0],[-118.22847,33.92902,0],[-118.22863,33.92899,0],[-118.22911,33.92886,0],[-118.22963,33.92874,0],[-118.22967,33.92872,0],[-118.22982,33.92869,0],[-118.23013,33.92861,0],[-118.2304,33.92855,0],[-118.23051,33.92852,0],[-118.23074,33.92848,0],[-118.23111,33.9284,0],[-118.23139,33.92835,0],[-118.2327,33.92821,0],[-118.23289,33.9282,0],[-118.23302,33.9282,0],[-118.2332,33.92819,0],[-118.23381,33.9282,0],[-118.23413,33.92822,0],[-118.23452,33.92823,0],[-118.23545,33.92829,0],[-118.23554,33.9283,0],[-118.23632,33.92834,0],[-118.23701,33.92839,0],[-118.23707,33.92839,0],[-118.23713,33.9284,0],[-118.2372,33.9284,0],[-118.23755,33.92843,0],[-118.23765,33.92843,0],[-118.23767,33.92844,0],[-118.23798,33.92845,0],[-118.23807,33.92846,0],[-118.23952,33.92854,0],[-118.23968,33.92856,0],[-118.24117,33.92865,0],[-118.24126,33.92866,0],[-118.24274,33.92876,0],[-118.24335,33.92879,0],[-118.24344,33.9288,0],[-118.24512,33.92889,0],[-118.24548,33.9289,0],[-118.24577,33.92892,0],[-118.24604,33.92893,0],[-118.24628,33.92895,0],[-118.24692,33.92897,0],[-118.24755,33.92897,0],[-118.2482,33.92895,0],[-118.24893,33.92891,0],[-118.24907,33.92889,0],[-118.24941,33.92887,0],[-118.24977,33.92883,0],[-118.2498,33.92883,0],[-118.24991,33.92882,0],[-118.24996,33.92881,0],[-118.2502,33.92878,0],[-118.2505,33.92873,0],[-118.25084,33.92869,0],[-118.25086,33.92869,0],[-118.25164,33.92858,0],[-118.25178,33.92857,0],[-118.252,33.92854,0],[-118.2521,33.92852,0],[-118.25225,33.9285,0],[-118.2524,33.92849,0],[-118.25255,33.92847,0],[-118.25271,33.92844,0],[-118.25283,33.92843,0],[-118.2534,33.92835,0],[-118.25342,33.92835,0],[-118.254,33.92828,0],[-118.25411,33.92826,0],[-118.25449,33.92821,0],[-118.25452,33.92821,0],[-118.25715,33.92786,0],[-118.25735,33.92784,0],[-118.25756,33.92781,0],[-118.25841,33.92774,0],[-118.25918,33.92771,0],[-118.25948,33.92769,0],[-118.25974,33.92769,0],[-118.25983,33.92768,0],[-118.26485,33.92769,0],[-118.26507,33.92768,0],[-118.26519,33.92768,0],[-118.2654,33.92769,0],[-118.26933,33.92769,0],[-118.26968,33.92771,0],[-118.27016,33.92772,0],[-118.27034,33.92774,0],[-118.27055,33.92775,0],[-118.2712,33.92783,0],[-118.27124,33.92783,0],[-118.27226,33.92799,0],[-118.27252,33.92805,0],[-118.27259,33.92814,0],[-118.2726,33.92814,0],[-118.2732,33.92828,0],[-118.27333,33.92832,0],[-118.27349,33.92836,0],[-118.27359,33.92838,0],[-118.27365,33.9284,0],[-118.27373,33.92842,0],[-118.27381,33.92843,0],[-118.27383,33.92844,0],[-118.27396,33.92847,0],[-118.27402,33.92849,0],[-118.27421,33.92853,0],[-118.27705,33.92925,0],[-118.27723,33.92929,0],[-118.27782,33.92945,0],[-118.278,33.92951,0],[-118.27824,33.92962,0],[-118.27845,33.92973,0],[-118.27867,33.92987,0],[-118.27897,33.93012,0],[-118.27918,33.93035,0],[-118.27942,33.9307,0],[-118.27952,33.93089,0],[-118.27963,33.93124,0],[-118.27967,33.93144,0],[-118.27967,33.93152,0],[-118.27968,33.93158,0],[-118.27968,33.93162,0],[-118.27969,33.93172,0],[-118.27968,33.93182,0],[-118.27968,33.93211,0],[-118.27975,33.93235,0],[-118.27973,33.93253,0],[-118.27969,33.93305,0],[-118.27969,33.93329,0],[-118.27968,33.93336,0],[-118.27968,33.93354,0],[-118.27967,33.93367,0],[-118.27967,33.93371,0],[-118.27966,33.93381,0],[-118.27966,33.93394,0],[-118.27965,33.93399,0],[-118.27965,33.93407,0],[-118.27963,33.9344,0],[-118.27962,33.93446,0],[-118.27962,33.93451,0],[-118.2796,33.93471,0],[-118.27957,33.93493,0],[-118.27957,33.93496,0],[-118.27956,33.93497,0],[-118.27954,33.9352,0],[-118.27952,33.93531,0],[-118.27952,33.93536,0],[-118.27949,33.93553,0],[-118.27945,33.9359,0],[-118.27945,33.93596,0],[-118.27944,33.936,0],[-118.27943,33.93622,0],[-118.27943,33.93632,0],[-118.27942,33.93653,0],[-118.27942,33.93675,0],[-118.27941,33.9368,0],[-118.27941,33.93708,0],[-118.27942,33.93713,0],[-118.27942,33.93733,0],[-118.27943,33.93735,0],[-118.27943,33.93758,0],[-118.27944,33.9376,0],[-118.27944,33.93783,0],[-118.27946,33.93812,0],[-118.27946,33.93825,0],[-118.27947,33.93838,0],[-118.27947,33.93857,0],[-118.27948,33.93881,0],[-118.27949,33.93887,0],[-118.27949,33.93903,0],[-118.2795,33.93916,0],[-118.2795,33.93928,0],[-118.27952,33.93951,0],[-118.27954,33.94014,0],[-118.27955,33.94022,0],[-118.27955,33.94023,0],[-118.27973,33.94039,0],[-118.27976,33.94124,0],[-118.27977,33.94202,0],[-118.27978,33.94212,0],[-118.27978,33.94261,0],[-118.27979,33.94296,0],[-118.27979,33.94344,0],[-118.27978,33.94356,0],[-118.27978,33.94385,0],[-118.27975,33.94422,0],[-118.27971,33.94448,0],[-118.2797,33.9446,0],[-118.27966,33.94487,0],[-118.27965,33.945,0],[-118.27961,33.94527,0],[-118.27961,33.94531,0],[-118.27953,33.94586,0],[-118.27952,33.94599,0],[-118.27948,33.94625,0],[-118.27947,33.94637,0],[-118.27943,33.94664,0],[-118.27942,33.94674,0],[-118.27939,33.94693,0],[-118.27939,33.94703,0],[-118.27937,33.94731,0],[-118.27937,33.9474,0],[-118.27936,33.94756,0],[-118.27936,33.94772,0],[-118.27937,33.94798,0],[-118.2794,33.94835,0],[-118.27944,33.9486,0],[-118.27945,33.94873,0],[-118.27948,33.94885,0],[-118.27956,33.94928,0],[-118.27961,33.9495,0],[-118.27963,33.94962,0],[-118.27967,33.9498,0],[-118.27969,33.94992,0],[-118.27973,33.9501,0],[-118.27973,33.95012,0],[-118.27974,33.95015,0],[-118.27974,33.95016,0],[-118.27976,33.95027,0],[-118.2798,33.95043,0],[-118.2799,33.95093,0],[-118.27992,33.95101,0],[-118.27997,33.9513,0],[-118.28006,33.95172,0],[-118.28008,33.95184,0],[-118.28008,33.95185,0],[-118.28011,33.95195,0],[-118.28015,33.95219,0],[-118.28018,33.95231,0],[-118.28034,33.95313,0],[-118.28037,33.95325,0],[-118.28039,33.95338,0],[-118.28042,33.95351,0],[-118.28044,33.95362,0],[-118.28047,33.95374,0],[-118.28049,33.95387,0],[-118.28052,33.95399,0],[-118.28058,33.9544,0],[-118.2806,33.95449,0],[-118.28061,33.95458,0],[-118.28061,33.95462,0],[-118.28064,33.955,0],[-118.28065,33.95508,0],[-118.28065,33.95604,0],[-118.28064,33.95626,0],[-118.28064,33.9566,0],[-118.28063,33.95686,0],[-118.28048,33.95698,0],[-118.28047,33.95699,0],[-118.28046,33.95701,0],[-118.28045,33.95704,0],[-118.28045,33.95707,0],[-118.28038,33.95767,0],[-118.28037,33.95781,0],[-118.28031,33.95823,0],[-118.28028,33.95831,0],[-118.28028,33.95832,0],[-118.28025,33.95838,0],[-118.28021,33.95844,0],[-118.28012,33.95855,0],[-118.28007,33.9586,0],[-118.27994,33.95871,0],[-118.27993,33.95871,0],[-118.2799,33.95875,0],[-118.27979,33.95883,0],[-118.27969,33.95893,0],[-118.27963,33.95898,0],[-118.27962,33.95901,0],[-118.2796,33.95905,0],[-118.27957,33.95909,0],[-118.27955,33.95917,0],[-118.27954,33.95941,0],[-118.27953,33.95952,0],[-118.27953,33.95992,0],[-118.27954,33.96003,0],[-118.27954,33.96014,0],[-118.2802,33.96014,0],[-118.28033,33.96015,0],[-118.28174,33.96014,0],[-118.2819,33.96013,0],[-118.28199,33.96014,0],[-118.28393,33.96014,0],[-118.28403,33.96013,0],[-118.28529,33.96013,0],[-118.28574,33.96012,0],[-118.28702,33.96012,0],[-118.28723,33.96011,0],[-118.29001,33.9601,0],[-118.29007,33.96011,0],[-118.29045,33.96009,0],[-118.2905,33.96008,0],[-118.29055,33.96006,0],[-118.29059,33.96005,0],[-118.29065,33.96003,0],[-118.29066,33.96004,0],[-118.29257,33.96003,0],[-118.29268,33.96002,0],[-118.29328,33.96002,0],[-118.29346,33.96003,0],[-118.2959,33.96003,0],[-118.29603,33.96002,0],[-118.29714,33.96002,0],[-118.29724,33.96003,0],[-118.29728,33.96002,0],[-118.30095,33.96002,0],[-118.3012,33.96001,0],[-118.30236,33.96001,0],[-118.30249,33.96,0],[-118.30421,33.95999,0],[-118.30454,33.95998,0],[-118.30538,33.95998,0],[-118.3058,33.95997,0],[-118.30685,33.95997,0],[-118.30703,33.95996,0],[-118.30737,33.95996,0],[-118.30737,33.95965,0],[-118.30738,33.9596,0],[-118.30736,33.95918,0],[-118.30737,33.95915,0],[-118.30739,33.95913,0],[-118.30741,33.95912,0],[-118.30743,33.9591,0],[-118.30746,33.9591,0],[-118.30751,33.95909,0],[-118.30765,33.95908,0],[-118.30792,33.95908,0]]},"properties":{"name":"Directions from 7300 Atlantic Ave, Cudahy, CA 90201 to 1730 W Manchester Ave, Los Angeles, CA 90047","styleUrl":"#line-1267FF-5000-nodesc","stroke-opacity":1,"stroke":"#1267ff","stroke-width":5}},{"type":"Feature","geometry":{"type":"Point","coordinates":[-118.187599,33.968395,0]},"properties":{"name":"7300 Atlantic Ave, Cudahy, CA 90201","styleUrl":"#icon-1899-DB4436-nodesc","label-scale":0,"icon-opacity":1,"icon-color":"#db4436","icon-scale":1,"icon-offset":[32,64],"icon-offset-units":["pixels","insetPixels"],"icon":"https://www.gstatic.com/mapspro/images/stock/503-wht-blank_maps.png"}},{"type":"Feature","geometry":{"type":"Point","coordinates":[-118.307922,33.95908,0]},"properties":{"name":"1730 W Manchester Ave, Los Angeles, CA 90047","styleUrl":"#icon-1899-DB4436-nodesc","label-scale":0,"icon-opacity":1,"icon-color":"#db4436","icon-scale":1,"icon-offset":[32,64],"icon-offset-units":["pixels","insetPixels"],"icon":"https://www.gstatic.com/mapspro/images/stock/503-wht-blank_maps.png"}},{"type":"Feature","geometry":{"type":"LineString","coordinates":[[-118.30792,33.95908,0],[-118.30765,33.95908,0],[-118.30751,33.95909,0],[-118.30746,33.9591,0],[-118.30743,33.9591,0],[-118.30741,33.95912,0],[-118.30739,33.95913,0],[-118.30737,33.95915,0],[-118.30736,33.95918,0],[-118.30738,33.9596,0],[-118.30737,33.95965,0],[-118.30737,33.95996,0],[-118.30703,33.95996,0],[-118.30685,33.95997,0],[-118.3058,33.95997,0],[-118.30538,33.95998,0],[-118.30454,33.95998,0],[-118.30421,33.95999,0],[-118.30249,33.96,0],[-118.30236,33.96001,0],[-118.3012,33.96001,0],[-118.30095,33.96002,0],[-118.29728,33.96002,0],[-118.29724,33.96003,0],[-118.29714,33.96002,0],[-118.29603,33.96002,0],[-118.2959,33.96003,0],[-118.29346,33.96003,0],[-118.29328,33.96002,0],[-118.29268,33.96002,0],[-118.29257,33.96003,0],[-118.29234,33.96003,0],[-118.29195,33.96004,0],[-118.29066,33.96004,0],[-118.29065,33.96003,0],[-118.29045,33.95999,0],[-118.28951,33.95999,0],[-118.28935,33.96,0],[-118.28854,33.96,0],[-118.2883,33.96001,0],[-118.28719,33.96001,0],[-118.287,33.96002,0],[-118.2819,33.96003,0],[-118.28177,33.96002,0],[-118.28131,33.96002,0],[-118.28118,33.96003,0],[-118.27969,33.96003,0],[-118.2797,33.95984,0],[-118.2797,33.95921,0],[-118.27971,33.95917,0],[-118.27972,33.95916,0],[-118.27973,33.95914,0],[-118.27973,33.95912,0],[-118.27976,33.95909,0],[-118.27978,33.95906,0],[-118.2798,33.95905,0],[-118.27981,33.95903,0],[-118.27985,33.95901,0],[-118.27997,33.95897,0],[-118.28008,33.95897,0],[-118.28011,33.95898,0],[-118.28013,33.95898,0],[-118.28021,33.95902,0],[-118.28022,33.95903,0],[-118.28025,33.95905,0],[-118.28028,33.95908,0],[-118.2803,33.95911,0],[-118.28032,33.95915,0],[-118.28033,33.95919,0],[-118.28035,33.95925,0],[-118.2804,33.95946,0],[-118.28041,33.95948,0],[-118.28041,33.95949,0],[-118.28043,33.95952,0],[-118.28044,33.95953,0],[-118.2805,33.95957,0],[-118.28058,33.95964,0],[-118.28058,33.95998,0],[-118.28059,33.96038,0],[-118.28059,33.96101,0],[-118.28061,33.96219,0],[-118.28061,33.96299,0],[-118.28062,33.96323,0],[-118.28063,33.96408,0],[-118.28064,33.96417,0],[-118.28066,33.96518,0],[-118.28066,33.96554,0],[-118.28067,33.96568,0],[-118.28067,33.96609,0],[-118.28068,33.96643,0],[-118.28068,33.96759,0],[-118.28067,33.96774,0],[-118.28067,33.97247,0],[-118.28066,33.97297,0],[-118.28066,33.97349,0],[-118.28065,33.97368,0],[-118.28065,33.9741,0],[-118.28064,33.97432,0],[-118.28064,33.97503,0],[-118.28063,33.97531,0],[-118.28063,33.97823,0],[-118.28062,33.97889,0],[-118.28062,33.98021,0],[-118.28061,33.98028,0],[-118.2806,33.9804,0],[-118.2806,33.98058,0],[-118.28059,33.98062,0],[-118.28059,33.98065,0],[-118.28054,33.98136,0],[-118.2805,33.98168,0],[-118.28048,33.98193,0],[-118.28044,33.98227,0],[-118.2804,33.98277,0],[-118.28035,33.98325,0],[-118.28032,33.98379,0],[-118.2803,33.98467,0],[-118.28029,33.98485,0],[-118.28028,33.9853,0],[-118.28028,33.98568,0],[-118.28027,33.9859,0],[-118.28026,33.98599,0],[-118.28026,33.98633,0],[-118.28025,33.98656,0],[-118.28024,33.98743,0],[-118.28023,33.98761,0],[-118.28023,33.9879,0],[-118.2802,33.98885,0],[-118.2802,33.98903,0],[-118.28019,33.9892,0],[-118.28019,33.98952,0],[-118.28018,33.98972,0],[-118.28018,33.9902,0],[-118.28021,33.99089,0],[-118.28022,33.99099,0],[-118.28024,33.99135,0],[-118.28024,33.99146,0],[-118.28028,33.99222,0],[-118.28029,33.99228,0],[-118.28029,33.99251,0],[-118.2803,33.9926,0],[-118.2803,33.99275,0],[-118.28031,33.99288,0],[-118.28031,33.99296,0],[-118.28032,33.99305,0],[-118.28033,33.99331,0],[-118.28033,33.99352,0],[-118.28034,33.99366,0],[-118.28034,33.9938,0],[-118.28035,33.99392,0],[-118.28036,33.9946,0],[-118.28037,33.99481,0],[-118.28037,33.99493,0],[-118.28038,33.99524,0],[-118.2804,33.99551,0],[-118.28041,33.99577,0],[-118.28043,33.996,0],[-118.28044,33.99624,0],[-118.28048,33.99673,0],[-118.28054,33.99731,0],[-118.28059,33.99795,0],[-118.28063,33.99831,0],[-118.28069,33.99902,0],[-118.28074,33.99947,0],[-118.28074,33.9995,0],[-118.28092,34.0013,0],[-118.28098,34.0023,0],[-118.28099,34.00274,0],[-118.281,34.00286,0],[-118.281,34.00316,0],[-118.28099,34.00327,0],[-118.28099,34.00352,0],[-118.2809,34.00671,0],[-118.2809,34.00683,0],[-118.28089,34.00692,0],[-118.28089,34.00698,0],[-118.28088,34.00719,0],[-118.28088,34.00734,0],[-118.28087,34.00754,0],[-118.28086,34.00811,0],[-118.28085,34.00833,0],[-118.28084,34.00881,0],[-118.28083,34.00899,0],[-118.28083,34.00908,0],[-118.28082,34.00935,0],[-118.28082,34.00953,0],[-118.28081,34.0097,0],[-118.28081,34.00976,0],[-118.28079,34.01022,0],[-118.28079,34.01046,0],[-118.28077,34.01095,0],[-118.28077,34.01115,0],[-118.28076,34.01124,0],[-118.28076,34.01152,0],[-118.28075,34.01168,0],[-118.28075,34.01193,0],[-118.28073,34.01234,0],[-118.28073,34.01244,0],[-118.28072,34.01253,0],[-118.28072,34.01278,0],[-118.2807,34.0132,0],[-118.2807,34.01337,0],[-118.28068,34.01376,0],[-118.28068,34.0139,0],[-118.28066,34.01424,0],[-118.28066,34.0144,0],[-118.28063,34.01472,0],[-118.28061,34.01484,0],[-118.28058,34.01511,0],[-118.28055,34.01528,0],[-118.28054,34.01532,0],[-118.28052,34.01546,0],[-118.28047,34.01567,0],[-118.28046,34.01575,0],[-118.28034,34.01625,0],[-118.28018,34.01675,0],[-118.28008,34.01704,0],[-118.27995,34.01735,0],[-118.27971,34.01788,0],[-118.27963,34.01804,0],[-118.27958,34.01815,0],[-118.27955,34.0182,0],[-118.2793,34.01868,0],[-118.27891,34.01936,0],[-118.27879,34.01955,0],[-118.2787,34.01972,0],[-118.27849,34.02006,0],[-118.27837,34.02024,0],[-118.27808,34.02071,0],[-118.27796,34.02088,0],[-118.27785,34.02105,0],[-118.27782,34.02112,0],[-118.2778,34.02114,0],[-118.27762,34.02143,0],[-118.27758,34.0215,0],[-118.27755,34.02156,0],[-118.27752,34.0216,0],[-118.2774,34.02182,0],[-118.27732,34.02198,0],[-118.27727,34.02207,0],[-118.27702,34.02259,0],[-118.27691,34.02279,0],[-118.27689,34.02284,0],[-118.27683,34.02296,0],[-118.27678,34.02308,0],[-118.27672,34.0232,0],[-118.27671,34.02321,0],[-118.27669,34.02324,0],[-118.27667,34.02328,0],[-118.27666,34.02332,0],[-118.27659,34.02345,0],[-118.27656,34.0235,0],[-118.27653,34.02357,0],[-118.27644,34.02375,0],[-118.27641,34.02383,0],[-118.27637,34.02391,0],[-118.27633,34.02401,0],[-118.27615,34.02441,0],[-118.27612,34.02446,0],[-118.2761,34.02452,0],[-118.27593,34.02482,0],[-118.27589,34.02488,0],[-118.27583,34.025,0],[-118.2758,34.02504,0],[-118.27575,34.02512,0],[-118.27571,34.0252,0],[-118.27554,34.02546,0],[-118.27544,34.02563,0],[-118.27524,34.02595,0],[-118.27523,34.02596,0],[-118.27487,34.02655,0],[-118.27482,34.02664,0],[-118.27481,34.02667,0],[-118.27471,34.02689,0],[-118.27468,34.02697,0],[-118.27464,34.02706,0],[-118.2746,34.0272,0],[-118.27456,34.02729,0],[-118.27448,34.02756,0],[-118.27445,34.02769,0],[-118.27442,34.0278,0],[-118.27439,34.02793,0],[-118.27435,34.02818,0],[-118.27431,34.02851,0],[-118.27429,34.02864,0],[-118.27429,34.02871,0],[-118.27428,34.02884,0],[-118.27429,34.02897,0],[-118.27429,34.02907,0],[-118.27431,34.02936,0],[-118.27432,34.02945,0],[-118.27437,34.03014,0],[-118.27438,34.03021,0],[-118.27438,34.03027,0],[-118.27439,34.03035,0],[-118.27441,34.03078,0],[-118.27444,34.03112,0],[-118.27444,34.03116,0],[-118.27448,34.0317,0],[-118.27448,34.03177,0],[-118.27449,34.03187,0],[-118.27449,34.03195,0],[-118.27451,34.03221,0],[-118.27451,34.03234,0],[-118.27452,34.03247,0],[-118.27452,34.03262,0],[-118.27453,34.03285,0],[-118.27453,34.03306,0],[-118.27448,34.03319,0],[-118.27444,34.03325,0],[-118.27443,34.03335,0],[-118.27441,34.03367,0],[-118.2744,34.03375,0],[-118.2744,34.03379,0],[-118.27431,34.03429,0],[-118.27431,34.03432,0],[-118.27419,34.03509,0],[-118.27415,34.03528,0],[-118.27414,34.03536,0],[-118.27411,34.03549,0],[-118.27411,34.03551,0],[-118.27408,34.03565,0],[-118.27402,34.03587,0],[-118.27398,34.03597,0],[-118.274,34.03607,0],[-118.274,34.03608,0],[-118.27392,34.03627,0],[-118.2739,34.0363,0],[-118.2738,34.03653,0],[-118.27371,34.03676,0],[-118.27363,34.03694,0],[-118.27357,34.0371,0],[-118.27354,34.03715,0],[-118.27352,34.0372,0],[-118.27352,34.03722,0],[-118.27349,34.03728,0],[-118.27344,34.03747,0],[-118.27342,34.03764,0],[-118.27342,34.03781,0],[-118.27345,34.03799,0],[-118.27345,34.038,0],[-118.27348,34.03817,0],[-118.27348,34.03819,0],[-118.27351,34.03831,0],[-118.27354,34.03849,0],[-118.27355,34.03857,0],[-118.27357,34.03867,0],[-118.27357,34.03882,0],[-118.27358,34.03885,0],[-118.27357,34.0389,0],[-118.27357,34.03896,0],[-118.27356,34.03903,0],[-118.27356,34.03907,0],[-118.27353,34.03915,0],[-118.27352,34.03919,0],[-118.2735,34.03925,0],[-118.27343,34.03939,0],[-118.2734,34.03946,0],[-118.27338,34.0395,0],[-118.27333,34.03957,0],[-118.27332,34.03961,0],[-118.27328,34.03965,0],[-118.27324,34.03971,0],[-118.27318,34.03977,0],[-118.27316,34.03978,0],[-118.27314,34.0398,0],[-118.27308,34.03984,0],[-118.27304,34.03986,0],[-118.27299,34.03988,0],[-118.27293,34.0399,0],[-118.27289,34.03991,0],[-118.27283,34.03991,0],[-118.2728,34.03992,0],[-118.27277,34.03992,0],[-118.27274,34.03991,0],[-118.27267,34.03991,0],[-118.27259,34.03989,0],[-118.27253,34.03987,0],[-118.2725,34.03987,0],[-118.27238,34.03981,0],[-118.27235,34.03979,0],[-118.27228,34.03973,0],[-118.27227,34.03973,0],[-118.27224,34.0397,0],[-118.27218,34.03962,0],[-118.27217,34.03959,0],[-118.27212,34.03949,0],[-118.27212,34.03946,0],[-118.2721,34.03935,0],[-118.2721,34.03924,0],[-118.27213,34.03908,0],[-118.27215,34.03902,0],[-118.27218,34.03897,0],[-118.2722,34.03892,0],[-118.27227,34.03883,0],[-118.2723,34.03878,0],[-118.27241,34.03869,0],[-118.27242,34.03868,0],[-118.27253,34.0386,0],[-118.27268,34.03852,0],[-118.2728,34.03848,0],[-118.27288,34.03846,0],[-118.2731,34.03843,0],[-118.27317,34.03843,0],[-118.27326,34.03842,0],[-118.27344,34.03841,0],[-118.27359,34.03841,0],[-118.27362,34.0384,0],[-118.27373,34.0384,0],[-118.27384,34.03839,0],[-118.27469,34.03834,0],[-118.27477,34.03833,0],[-118.27516,34.03831,0],[-118.2752,34.03831,0],[-118.27578,34.03827,0],[-118.27587,34.03826,0],[-118.27596,34.03826,0],[-118.27605,34.03825,0],[-118.27628,34.03824,0],[-118.2765,34.03822,0],[-118.27673,34.03821,0],[-118.27696,34.03819,0],[-118.27703,34.03819,0],[-118.27799,34.03813,0],[-118.27802,34.03813,0],[-118.27847,34.0381,0],[-118.27865,34.03808,0],[-118.27882,34.03807,0],[-118.27907,34.03804,0],[-118.27912,34.03804,0],[-118.27917,34.03803,0],[-118.27932,34.03802,0],[-118.27946,34.038,0],[-118.27988,34.03796,0],[-118.28032,34.0379,0],[-118.28036,34.03789,0],[-118.28064,34.03785,0],[-118.2808,34.03782,0],[-118.28088,34.0378,0],[-118.2809,34.03781,0],[-118.28105,34.03783,0],[-118.28108,34.03783,0],[-118.28137,34.03777,0],[-118.28153,34.03773,0],[-118.28167,34.0377,0],[-118.28168,34.0377,0],[-118.28182,34.03767,0],[-118.28189,34.03766,0],[-118.28202,34.03763,0],[-118.28213,34.0376,0],[-118.2823,34.03757,0],[-118.28269,34.03749,0],[-118.28276,34.03747,0],[-118.28318,34.03739,0],[-118.28326,34.03737,0],[-118.2838,34.03726,0],[-118.28398,34.03723,0],[-118.28413,34.03721,0],[-118.2844,34.03716,0],[-118.28443,34.03716,0],[-118.28519,34.03706,0],[-118.28529,34.03706,0],[-118.28536,34.03705,0],[-118.28615,34.037,0],[-118.2863,34.037,0],[-118.28653,34.03699,0],[-118.28693,34.03699,0],[-118.28709,34.037,0],[-118.28867,34.03701,0],[-118.28976,34.03703,0],[-118.29039,34.03703,0],[-118.29055,34.03704,0],[-118.29122,34.03704,0],[-118.2915,34.03705,0],[-118.29298,34.03706,0],[-118.29309,34.03707,0],[-118.29384,34.03707,0],[-118.2939,34.03708,0],[-118.29454,34.03708,0],[-118.2947,34.03709,0],[-118.2954,34.03709,0],[-118.29556,34.0371,0],[-118.29636,34.0371,0],[-118.29656,34.03711,0],[-118.29718,34.03711,0],[-118.29736,34.03712,0],[-118.29798,34.03712,0],[-118.29814,34.03713,0],[-118.29893,34.03713,0],[-118.29909,34.03714,0],[-118.29943,34.03714,0],[-118.2999,34.03715,0],[-118.30035,34.03715,0],[-118.30072,34.03716,0],[-118.30238,34.03717,0],[-118.30258,34.03718,0],[-118.30329,34.03718,0],[-118.30365,34.03719,0],[-118.30381,34.0372,0],[-118.30417,34.03721,0],[-118.30475,34.0372,0],[-118.30505,34.03721,0],[-118.30584,34.03721,0],[-118.30617,34.03722,0],[-118.30646,34.03722,0],[-118.30667,34.03723,0],[-118.30881,34.03725,0],[-118.30886,34.03726,0],[-118.30942,34.03726,0],[-118.3099,34.03728,0],[-118.31095,34.03729,0],[-118.31197,34.03727,0],[-118.31237,34.03725,0],[-118.31262,34.03725,0],[-118.31473,34.03713,0],[-118.31512,34.03709,0],[-118.31522,34.03709,0],[-118.31535,34.03707,0],[-118.31554,34.03706,0],[-118.31587,34.03703,0],[-118.31603,34.03701,0],[-118.31625,34.03699,0],[-118.31638,34.03697,0],[-118.31788,34.03679,0],[-118.31868,34.03667,0],[-118.31877,34.03666,0],[-118.31881,34.03665,0],[-118.31926,34.03659,0],[-118.31943,34.03656,0],[-118.31976,34.03652,0],[-118.32006,34.03647,0],[-118.32022,34.03645,0],[-118.32034,34.03643,0],[-118.32039,34.03643,0],[-118.32042,34.03642,0],[-118.32087,34.03636,0],[-118.32111,34.03632,0],[-118.32113,34.03632,0],[-118.32227,34.03616,0],[-118.32232,34.03615,0],[-118.32326,34.03602,0],[-118.32334,34.036,0],[-118.32352,34.03598,0],[-118.32511,34.03575,0],[-118.3252,34.03574,0],[-118.32552,34.03569,0],[-118.32586,34.03565,0],[-118.32589,34.03564,0],[-118.326,34.03563,0],[-118.32637,34.03558,0],[-118.32725,34.03549,0],[-118.32754,34.03547,0],[-118.32763,34.03546,0],[-118.32772,34.03546,0],[-118.32804,34.03544,0],[-118.32816,34.03544,0],[-118.32891,34.0354,0],[-118.32896,34.0354,0],[-118.32969,34.03536,0],[-118.32983,34.03536,0],[-118.32988,34.03535,0],[-118.33001,34.03535,0],[-118.33011,34.03534,0],[-118.33213,34.03525,0],[-118.3326,34.03522,0],[-118.33276,34.03522,0],[-118.33284,34.03521,0],[-118.33292,34.03521,0],[-118.33324,34.03519,0],[-118.3334,34.03519,0],[-118.33384,34.03517,0],[-118.33389,34.03517,0],[-118.33393,34.03516,0],[-118.33403,34.03516,0],[-118.33434,34.03514,0],[-118.3345,34.03514,0],[-118.33479,34.03512,0],[-118.33482,34.03512,0],[-118.33514,34.0351,0],[-118.33529,34.0351,0],[-118.33544,34.03509,0],[-118.33555,34.03509,0],[-118.33561,34.03508,0],[-118.33578,34.03508,0],[-118.34519,34.03462,0],[-118.34552,34.03461,0],[-118.34768,34.0345,0],[-118.34799,34.03449,0],[-118.34895,34.03444,0],[-118.3491,34.03444,0],[-118.34958,34.03441,0],[-118.34965,34.03441,0],[-118.35049,34.03437,0],[-118.35077,34.03435,0],[-118.35093,34.03435,0],[-118.35141,34.03432,0],[-118.35175,34.03431,0],[-118.35209,34.03429,0],[-118.3524,34.03428,0],[-118.35539,34.03413,0],[-118.35566,34.03411,0],[-118.35882,34.03396,0],[-118.35902,34.03394,0],[-118.35934,34.03393,0],[-118.35964,34.03391,0],[-118.36013,34.03389,0],[-118.36108,34.03389,0],[-118.36116,34.0339,0],[-118.36139,34.0339,0],[-118.36185,34.03392,0],[-118.36205,34.03394,0],[-118.36249,34.03397,0],[-118.36313,34.03405,0],[-118.36334,34.03407,0],[-118.36343,34.03409,0],[-118.36375,34.03413,0],[-118.36437,34.03424,0],[-118.36464,34.0343,0],[-118.36478,34.03445,0],[-118.36479,34.03445,0],[-118.36479,34.03446,0],[-118.36526,34.03458,0],[-118.36561,34.03468,0],[-118.36573,34.03472,0],[-118.36665,34.03497,0],[-118.36685,34.03503,0],[-118.36703,34.03509,0],[-118.36718,34.03513,0],[-118.36737,34.03519,0],[-118.36766,34.03529,0],[-118.3679,34.03532,0],[-118.36809,34.03543,0],[-118.36817,34.03547,0],[-118.3684,34.03561,0],[-118.36858,34.03569,0],[-118.36898,34.03584,0],[-118.36907,34.03587,0],[-118.3692,34.03596,0],[-118.36911,34.03615,0],[-118.36909,34.03621,0],[-118.36906,34.03628,0],[-118.36905,34.03629,0],[-118.36901,34.03639,0],[-118.36892,34.03658,0],[-118.36891,34.03662,0],[-118.3688,34.03691,0],[-118.36878,34.037,0],[-118.36878,34.03703,0],[-118.36877,34.03706,0],[-118.36874,34.03726,0],[-118.36873,34.03738,0],[-118.36873,34.03765,0],[-118.36874,34.03776,0],[-118.36874,34.03781,0],[-118.36875,34.03786,0],[-118.36875,34.03789,0],[-118.36876,34.03796,0],[-118.36879,34.03811,0],[-118.36885,34.03831,0],[-118.36893,34.0385,0],[-118.36904,34.03873,0],[-118.36924,34.03905,0],[-118.36934,34.03922,0],[-118.36945,34.03939,0],[-118.36953,34.03954,0],[-118.3697,34.0398,0],[-118.36979,34.03995,0],[-118.36981,34.03997,0],[-118.36982,34.03999,0],[-118.36986,34.04013,0],[-118.36987,34.04014,0],[-118.3699,34.0402,0],[-118.36992,34.04026,0],[-118.36995,34.04033,0],[-118.36995,34.04036,0],[-118.36996,34.04038,0],[-118.36997,34.04041,0],[-118.36997,34.04042,0],[-118.36999,34.04049,0],[-118.37001,34.0407,0],[-118.37001,34.04077,0],[-118.37002,34.04078,0],[-118.37002,34.04093,0],[-118.37001,34.04099,0],[-118.37001,34.04106,0],[-118.36998,34.04126,0],[-118.36996,34.04134,0],[-118.36994,34.04139,0],[-118.36993,34.04143,0],[-118.36991,34.04148,0],[-118.36989,34.04151,0],[-118.36988,34.04156,0],[-118.36986,34.04159,0],[-118.36965,34.04211,0],[-118.36964,34.04212,0],[-118.36926,34.04299,0],[-118.36925,34.04302,0],[-118.369,34.04358,0],[-118.36876,34.04415,0],[-118.36831,34.04516,0],[-118.36817,34.04552,0],[-118.36812,34.04563,0],[-118.3681,34.04572,0],[-118.3677,34.04717,0],[-118.3677,34.04718,0],[-118.36768,34.04724,0],[-118.36768,34.04725,0],[-118.36765,34.04735,0],[-118.36759,34.04759,0],[-118.36754,34.04775,0],[-118.36704,34.04957,0],[-118.36704,34.04958,0],[-118.36701,34.04967,0],[-118.36699,34.04976,0],[-118.36698,34.04978,0],[-118.36693,34.04996,0],[-118.36692,34.05001,0],[-118.36689,34.05009,0],[-118.36682,34.05035,0],[-118.36681,34.05037,0],[-118.3668,34.05042,0],[-118.36676,34.05056,0],[-118.36676,34.05057,0],[-118.36673,34.05068,0],[-118.3667,34.05084,0],[-118.3667,34.0509,0],[-118.36672,34.051,0],[-118.36672,34.05104,0],[-118.36673,34.05107,0],[-118.36673,34.05111,0],[-118.36672,34.05126,0],[-118.36672,34.05137,0],[-118.36668,34.05156,0],[-118.36667,34.05169,0],[-118.36667,34.05179,0],[-118.36666,34.05196,0],[-118.36665,34.052,0],[-118.36664,34.05206,0],[-118.36659,34.05221,0],[-118.36657,34.05226,0],[-118.36655,34.0523,0],[-118.36653,34.05236,0],[-118.36642,34.05261,0],[-118.36637,34.0527,0],[-118.36618,34.05313,0],[-118.36618,34.05314,0],[-118.36617,34.05316,0],[-118.36616,34.05317,0],[-118.36614,34.05323,0],[-118.36613,34.05324,0],[-118.36612,34.05326,0],[-118.36612,34.05327,0],[-118.36601,34.05349,0],[-118.36598,34.05357,0],[-118.36545,34.05472,0],[-118.36541,34.05479,0],[-118.36541,34.0548,0],[-118.36535,34.05492,0],[-118.36535,34.05493,0],[-118.36516,34.05533,0],[-118.36514,34.05538,0],[-118.36513,34.0554,0],[-118.36512,34.05541,0],[-118.36507,34.05554,0],[-118.36506,34.05556,0],[-118.36505,34.05559,0],[-118.36452,34.05674,0],[-118.3645,34.05679,0],[-118.36443,34.05693,0],[-118.36405,34.05776,0],[-118.36403,34.05779,0],[-118.36402,34.05782,0],[-118.364,34.05785,0],[-118.36394,34.058,0],[-118.36393,34.05801,0],[-118.36385,34.05819,0],[-118.36375,34.05839,0],[-118.36375,34.0584,0],[-118.36369,34.05853,0],[-118.36359,34.05872,0],[-118.36341,34.05909,0],[-118.36321,34.05946,0],[-118.36305,34.05978,0],[-118.36295,34.06,0],[-118.36294,34.06001,0],[-118.36248,34.06091,0],[-118.36246,34.06094,0],[-118.36232,34.06121,0],[-118.36227,34.06132,0],[-118.36193,34.06198,0],[-118.36185,34.06215,0],[-118.36173,34.06238,0],[-118.36169,34.06245,0],[-118.36165,34.06253,0],[-118.36161,34.0626,0],[-118.36144,34.06293,0],[-118.36138,34.06306,0],[-118.36138,34.06358,0],[-118.36139,34.06365,0],[-118.36139,34.06439,0],[-118.3614,34.06487,0],[-118.36141,34.06504,0],[-118.36141,34.06567,0],[-118.36142,34.06573,0],[-118.36142,34.06672,0],[-118.36143,34.06732,0],[-118.36143,34.06873,0],[-118.36142,34.06891,0],[-118.36142,34.06903,0],[-118.36143,34.06906,0],[-118.36143,34.06991,0],[-118.36142,34.06996,0],[-118.36142,34.07075,0],[-118.36143,34.071,0],[-118.36143,34.07153,0],[-118.36141,34.07171,0],[-118.36141,34.07384,0],[-118.36142,34.07398,0],[-118.36142,34.07575,0],[-118.36143,34.07588,0],[-118.36143,34.07611,0],[-118.36166,34.07612,0],[-118.36172,34.07612,0],[-118.36182,34.07611,0],[-118.36373,34.07611,0],[-118.36373,34.07637,0]]},"properties":{"name":"Directions from 1730 W Manchester Ave, Los Angeles, CA 90047 to 8001 Beverly Blvd, Los Angeles, California","styleUrl":"#line-1267FF-5000-nodesc","stroke-opacity":1,"stroke":"#1267ff","stroke-width":5}},{"type":"Feature","geometry":{"type":"Point","coordinates":[-118.307922,33.95908,0]},"properties":{"name":"1730 W Manchester Ave, Los Angeles, CA 90047","styleUrl":"#icon-1899-DB4436-nodesc","label-scale":0,"icon-opacity":1,"icon-color":"#db4436","icon-scale":1,"icon-offset":[32,64],"icon-offset-units":["pixels","insetPixels"],"icon":"https://www.gstatic.com/mapspro/images/stock/503-wht-blank_maps.png"}},{"type":"Feature","geometry":{"type":"Point","coordinates":[-118.363729,34.076367,0]},"properties":{"name":"8001 Beverly Blvd, Los Angeles, California","styleUrl":"#icon-1899-DB4436-nodesc","label-scale":0,"icon-opacity":1,"icon-color":"#db4436","icon-scale":1,"icon-offset":[32,64],"icon-offset-units":["pixels","insetPixels"],"icon":"https://www.gstatic.com/mapspro/images/stock/503-wht-blank_maps.png"}}]}