{"type":"FeatureCollection","features":[{"type":"Feature","geometry":{"type":"LineString","coordinates":[[-118.30792,33.95908,0],[-118.30848,33.95908,0],[-118.30854,33.95907,0],[-118.30899,33.95907,0],[-118.30899,33.95925,0],[-118.309,33.95948,0],[-118.309,33.95996,0],[-118.30908,33.95997,0],[-118.31024,33.95997,0],[-118.31042,33.95998,0],[-118.31062,33.95998,0],[-118.3107,33.95997,0],[-118.31108,33.95998,0],[-118.31198,33.95998,0],[-118.31219,33.95997,0],[-118.31491,33.95997,0],[-118.31503,33.95998,0],[-118.31761,33.95998,0],[-118.31778,33.96004,0],[-118.32007,33.96004,0],[-118.32043,33.96005,0],[-118.32198,33.96005,0],[-118.32214,33.96004,0],[-118.32228,33.96004,0],[-118.32231,33.96005,0],[-118.32409,33.96005,0],[-118.32422,33.96004,0],[-118.32435,33.96005,0],[-118.32632,33.96006,0],[-118.32643,33.96004,0],[-118.32658,33.96004,0],[-118.32674,33.96005,0],[-118.32733,33.96005,0],[-118.32759,33.96004,0],[-118.32864,33.96004,0],[-118.32877,33.96005,0],[-118.33498,33.96004,0],[-118.33514,33.96005,0],[-118.3353,33.96004,0],[-118.34328,33.96003,0],[-118.34336,33.96002,0],[-118.34343,33.96002,0],[-118.34364,33.95999,0],[-118.34372,33.95997,0],[-118.34373,33.95997,0],[-118.34421,33.95986,0],[-118.34427,33.95984,0],[-118.34431,33.95983,0],[-118.34437,33.95982,0],[-118.3444,33.95982,0],[-118.34457,33.9598,0],[-118.34487,33.95978,0],[-118.34503,33.95978,0],[-118.34513,33.95977,0],[-118.3454,33.95977,0],[-118.34544,33.95978,0],[-118.3455,33.95978,0],[-118.34566,33.9598,0],[-118.34575,33.95982,0],[-118.34582,33.95983,0],[-118.34591,33.95985,0],[-118.34603,33.95989,0],[-118.34604,33.9599,0],[-118.34605,33.9599,0],[-118.34609,33.95992,0],[-118.34618,33.95995,0],[-118.34626,33.95999,0],[-118.34631,33.96001,0],[-118.34644,33.96009,0],[-118.34647,33.96012,0],[-118.34649,33.96013,0],[-118.34659,33.96022,0],[-118.3467,33.9603,0],[-118.34671,33.96031,0],[-118.34719,33.9607,0],[-118.34726,33.96075,0],[-118.3473,33.96079,0],[-118.34766,33.96108,0],[-118.34767,33.96108,0],[-118.34772,33.96113,0],[-118.34781,33.9612,0],[-118.34783,33.96122,0],[-118.34802,33.96137,0],[-118.34804,33.96138,0],[-118.3482,33.9615,0],[-118.34851,33.96167,0],[-118.34854,33.96168,0],[-118.34873,33.96177,0],[-118.34888,33.9618,0],[-118.34899,33.96177,0],[-118.3491,33.9618,0],[-118.34946,33.96181,0],[-118.34994,33.96181,0],[-118.35039,33.9618,0],[-118.35117,33.9618,0],[-118.35134,33.96179,0],[-118.35191,33.96179,0],[-118.35201,33.96183,0],[-118.35217,33.96183,0],[-118.35266,33.96181,0],[-118.35296,33.96181,0],[-118.35329,33.9618,0],[-118.35336,33.96179,0],[-118.35362,33.96179,0],[-118.35385,33.96178,0],[-118.35415,33.96178,0],[-118.35428,33.96177,0],[-118.35454,33.96177,0],[-118.35463,33.96176,0],[-118.35498,33.96176,0],[-118.35506,33.96181,0],[-118.35518,33.9618,0],[-118.35969,33.96176,0],[-118.35998,33.96175,0],[-118.36065,33.96175,0],[-118.36104,33.96174,0],[-118.36161,33.96174,0],[-118.36175,33.96173,0],[-118.3641,33.96171,0],[-118.36432,33.9617,0],[-118.3649,33.9617,0],[-118.36507,33.96169,0],[-118.36709,33.96169,0],[-118.36715,33.96168,0],[-118.3681,33.96168,0],[-118.36824,33.96167,0],[-118.36856,33.96167,0],[-118.36867,33.96166,0],[-118.36899,33.96166,0],[-118.36902,33.96182,0],[-118.36903,33.96183,0],[-118.36907,33.96199,0],[-118.36907,33.96202,0],[-118.36911,33.96217,0],[-118.36911,33.96219,0],[-118.36914,33.9623,0],[-118.36915,33.96235,0],[-118.36917,33.96241,0],[-118.36919,33.96252,0],[-118.3692,33.96255,0],[-118.36921,33.9626,0],[-118.36929,33.96285,0],[-118.36933,33.96292,0],[-118.36934,33.96295,0],[-118.36938,33.96304,0],[-118.36939,33.96307,0],[-118.36946,33.96323,0],[-118.3695,33.96336,0],[-118.36952,33.9634,0],[-118.36958,33.96358,0],[-118.3696,33.96362,0],[-118.36966,33.96379,0],[-118.3697,33.96389,0],[-118.36972,33.96395,0],[-118.36973,33.96397,0],[-118.36974,33.96402,0],[-118.36975,33.96405,0],[-118.36982,33.96414,0],[-118.36994,33.96448,0],[-118.36997,33.96458,0],[-118.36999,33.96463,0],[-118.37057,33.96648,0],[-118.37063,33.96662,0],[-118.37065,33.96666,0],[-118.37066,33.96669,0],[-118.37069,33.96672,0],[-118.37088,33.96679,0],[-118.37089,33.96683,0],[-118.37093,33.96691,0],[-118.371,33.96707,0],[-118.37111,33.96729,0],[-118.37111,33.9673,0],[-118.37117,33.9674,0],[-118.37118,33.96743,0],[-118.37122,33.96749,0],[-118.37127,33.96758,0],[-118.37136,33.96772,0],[-118.37165,33.96813,0],[-118.37175,33.96825,0],[-118.37188,33.96839,0],[-118.372,33.96853,0],[-118.37205,33.96857,0],[-118.37214,33.96866,0],[-118.37217,33.9687,0],[-118.37268,33.96913,0],[-118.37276,33.96918,0],[-118.37305,33.96939,0],[-118.3732,33.96949,0],[-118.37328,33.96953,0],[-118.37342,33.96962,0],[-118.37399,33.96991,0],[-118.37404,33.96994,0],[-118.37412,33.96997,0],[-118.37415,33.96999,0],[-118.37498,33.97041,0],[-118.37524,33.97053,0],[-118.37566,33.97076,0],[-118.37605,33.97095,0],[-118.37614,33.971,0],[-118.37671,33.97128,0],[-118.37682,33.97134,0],[-118.37737,33.97161,0],[-118.37839,33.97215,0],[-118.37846,33.97218,0],[-118.37852,33.97222,0],[-118.3788,33.97237,0],[-118.37881,33.97238,0],[-118.37894,33.97245,0],[-118.37904,33.97251,0],[-118.37908,33.97253,0],[-118.38017,33.97316,0],[-118.38021,33.97319,0],[-118.38146,33.97391,0],[-118.38149,33.97393,0],[-118.38204,33.97423,0],[-118.38228,33.97435,0],[-118.38237,33.9744,0],[-118.38242,33.97442,0],[-118.3828,33.97461,0],[-118.38283,33.97463,0],[-118.38288,33.97465,0],[-118.38306,33.97475,0],[-118.38389,33.97514,0],[-118.3839,33.97515,0],[-118.38439,33.97539,0],[-118.38442,33.9754,0],[-118.38487,33.9756,0],[-118.38493,33.97564,0],[-118.38542,33.97589,0],[-118.38583,33.97608,0],[-118.38588,33.97611,0],[-118.38592,33.97612,0],[-118.38595,33.97614,0],[-118.38625,33.97628,0],[-118.38633,33.97631,0],[-118.38646,33.97638,0],[-118.38724,33.97674,0],[-118.38729,33.97677,0],[-118.38733,33.97678,0],[-118.38759,33.9769,0],[-118.3877,33.97696,0],[-118.38787,33.97704,0],[-118.38797,33.97708,0],[-118.388,33.9771,0],[-118.38833,33.97726,0],[-118.38847,33.97732,0],[-118.3886,33.97739,0],[-118.3887,33.97743,0],[-118.38873,33.97745,0],[-118.38972,33.97791,0],[-118.3899,33.978,0],[-118.39093,33.97848,0],[-118.39128,33.97868,0],[-118.39168,33.97893,0],[-118.39204,33.9792,0],[-118.39216,33.97931,0],[-118.39229,33.97942,0],[-118.39243,33.97955,0],[-118.39269,33.97982,0],[-118.39275,33.97987,0],[-118.39294,33.9801,0],[-118.39298,33.98014,0],[-118.39314,33.98035,0],[-118.39348,33.98077,0],[-118.39349,33.98079,0],[-118.3935,33.98079,0],[-118.39392,33.98134,0],[-118.39555,33.9834,0],[-118.39561,33.98347,0],[-118.39574,33.98365,0],[-118.39581,33.98373,0],[-118.39597,33.98393,0],[-118.39601,33.98399,0],[-118.39604,33.98402,0],[-118.39626,33.98429,0],[-118.39629,33.98434,0],[-118.39773,33.98616,0],[-118.39776,33.98621,0],[-118.39819,33.98675,0],[-118.39821,33.98678,0],[-118.39842,33.98704,0],[-118.39844,33.98707,0],[-118.39923,33.98807,0],[-118.39928,33.98814,0],[-118.39987,33.98887,0],[-118.39996,33.989,0],[-118.40045,33.98961,0],[-118.40047,33.98964,0],[-118.40055,33.98974,0],[-118.40066,33.98989,0],[-118.40083,33.99009,0],[-118.40085,33.99012,0],[-118.40162,33.9911,0],[-118.40167,33.99117,0],[-118.40231,33.99197,0],[-118.40236,33.99204,0],[-118.40261,33.99235,0],[-118.40268,33.99245,0],[-118.40311,33.99299,0],[-118.40313,33.99302,0],[-118.40373,33.99377,0],[-118.40377,33.99384,0],[-118.40401,33.99413,0],[-118.40416,33.99433,0],[-118.4045,33.99475,0],[-118.40454,33.99481,0],[-118.4047,33.99501,0],[-118.40477,33.99509,0],[-118.40481,33.99515,0],[-118.40486,33.99521,0],[-118.40495,33.99533,0],[-118.40513,33.99555,0],[-118.40521,33.99566,0],[-118.4053,33.99576,0],[-118.40538,33.99587,0],[-118.40581,33.99641,0],[-118.40598,33.99664,0],[-118.40646,33.99724,0],[-118.40651,33.99731,0],[-118.40692,33.99782,0],[-118.407,33.99793,0],[-118.40705,33.99799,0],[-118.40717,33.99815,0],[-118.40723,33.99822,0],[-118.40737,33.9984,0],[-118.40743,33.99847,0],[-118.40794,33.99912,0],[-118.40805,33.99925,0],[-118.40852,33.99986,0],[-118.40877,34.00017,0],[-118.40886,34.00029,0],[-118.40896,34.00041,0],[-118.40901,34.00048,0],[-118.4094,34.00097,0],[-118.40945,34.00104,0],[-118.40946,34.00105,0],[-118.40948,34.00108,0],[-118.40955,34.00116,0],[-118.40983,34.00152,0],[-118.40997,34.00169,0],[-118.41012,34.00189,0],[-118.41026,34.00206,0],[-118.41089,34.00287,0],[-118.41092,34.0029,0],[-118.41157,34.00372,0],[-118.41175,34.00396,0],[-118.41202,34.00429,0],[-118.41209,34.00439,0],[-118.41338,34.00602,0],[-118.41341,34.00605,0],[-118.41346,34.00612,0],[-118.41351,34.00618,0],[-118.41353,34.00621,0],[-118.41366,34.00637,0],[-118.41385,34.00662,0],[-118.41397,34.00676,0],[-118.41397,34.00677,0],[-118.41407,34.00688,0],[-118.41414,34.00699,0],[-118.41422,34.00708,0],[-118.41914,34.0133,0],[-118.41919,34.01337,0],[-118.41922,34.0134,0],[-118.41935,34.01356,0],[-118.41947,34.01373,0],[-118.41961,34.0139,0],[-118.41967,34.01398,0],[-118.4198,34.01413,0],[-118.4233,34.01857,0],[-118.42343,34.01872,0],[-118.42383,34.01922,0],[-118.424,34.01945,0],[-118.42453,34.0201,0],[-118.42478,34.02043,0],[-118.42664,34.02278,0],[-118.42672,34.02289,0],[-118.42674,34.02291,0],[-118.42697,34.0232,0],[-118.42707,34.02331,0],[-118.42723,34.02353,0],[-118.42738,34.02371,0],[-118.42741,34.02374,0],[-118.4275,34.02386,0],[-118.42762,34.024,0],[-118.42767,34.02407,0],[-118.4282,34.02472,0],[-118.42828,34.02483,0],[-118.42837,34.02494,0],[-118.42846,34.02504,0],[-118.42846,34.02505,0],[-118.42863,34.02526,0],[-118.42872,34.02536,0],[-118.42948,34.02632,0],[-118.4296,34.02646,0],[-118.4297,34.0266,0],[-118.42982,34.02674,0],[-118.43025,34.02728,0],[-118.4303,34.02735,0],[-118.43048,34.02757,0],[-118.43088,34.02809,0],[-118.43095,34.02817,0],[-118.43103,34.02828,0],[-118.43129,34.0286,0],[-118.43131,34.02862,0],[-118.43137,34.02871,0],[-118.43146,34.02882,0],[-118.43155,34.02894,0],[-118.43161,34.02901,0],[-118.43189,34.02937,0],[-118.4319,34.02938,0],[-118.43215,34.0297,0],[-118.43223,34.02979,0],[-118.43276,34.03046,0],[-118.43279,34.03049,0],[-118.43285,34.03058,0],[-118.43294,34.03068,0],[-118.43296,34.03072,0],[-118.43327,34.03111,0],[-118.4335,34.03138,0],[-118.43355,34.03145,0],[-118.43374,34.03166,0],[-118.43394,34.03186,0],[-118.43404,34.03194,0],[-118.43415,34.03205,0],[-118.43427,34.03214,0],[-118.4343,34.03217,0],[-118.4345,34.03232,0],[-118.43461,34.03241,0],[-118.43471,34.03248,0],[-118.43479,34.03253,0],[-118.43487,34.03259,0],[-118.43511,34.03275,0],[-118.43572,34.03319,0],[-118.43577,34.03323,0],[-118.43581,34.03325,0],[-118.43583,34.03327,0],[-118.43594,34.03335,0],[-118.43626,34.0336,0],[-118.43639,34.03371,0],[-118.4366,34.0339,0],[-118.43709,34.03442,0],[-118.4371,34.03444,0],[-118.43724,34.03459,0],[-118.43733,34.03472,0],[-118.43739,34.03479,0],[-118.43742,34.03485,0],[-118.43759,34.0351,0],[-118.43782,34.03547,0],[-118.43808,34.03598,0],[-118.43809,34.03601,0],[-118.43832,34.03649,0],[-118.43835,34.03656,0],[-118.43837,34.03662,0],[-118.43845,34.03681,0],[-118.43849,34.03688,0],[-118.43853,34.03698,0],[-118.4386,34.03712,0],[-118.43876,34.03748,0],[-118.43903,34.038,0],[-118.43905,34.03803,0],[-118.4391,34.03812,0],[-118.4392,34.03828,0],[-118.43922,34.03832,0],[-118.43929,34.03844,0],[-118.43948,34.03874,0],[-118.43966,34.03898,0],[-118.43976,34.03913,0],[-118.43996,34.03937,0],[-118.43997,34.03939,0],[-118.44063,34.04018,0],[-118.44167,34.04139,0],[-118.44168,34.04139,0],[-118.44188,34.04162,0],[-118.442,34.04177,0],[-118.4421,34.04187,0],[-118.44277,34.04266,0],[-118.44304,34.04296,0],[-118.4432,34.04316,0],[-118.44333,34.0433,0],[-118.44334,34.04332,0],[-118.44364,34.04366,0],[-118.4437,34.04397,0],[-118.44374,34.04403,0],[-118.44375,34.04404,0],[-118.44378,34.04408,0],[-118.44386,34.0442,0],[-118.44388,34.04422,0],[-118.44398,34.04437,0],[-118.444,34.04439,0],[-118.44406,34.04448,0],[-118.4441,34.04453,0],[-118.44425,34.04474,0],[-118.44428,34.04479,0],[-118.44437,34.0449,0],[-118.44443,34.04499,0],[-118.44447,34.04504,0],[-118.44455,34.04516,0],[-118.44475,34.04543,0],[-118.44491,34.04566,0],[-118.44496,34.04572,0],[-118.44496,34.04573,0],[-118.44507,34.04588,0],[-118.44549,34.04637,0],[-118.44565,34.04657,0],[-118.44567,34.04659,0],[-118.44598,34.04696,0],[-118.44606,34.04707,0],[-118.44546,34.04723,0],[-118.44481,34.04743,0],[-118.44475,34.04744,0],[-118.4445,34.04752,0],[-118.444,34.04766,0],[-118.44381,34.04772,0],[-118.4438,34.04772,0],[-118.44301,34.04796,0],[-118.44286,34.048,0],[-118.44285,34.048,0],[-118.44264,34.04807,0],[-118.44222,34.04818,0],[-118.4415,34.04839,0],[-118.44125,34.04845,0],[-118.44077,34.04859,0],[-118.44061,34.04863,0],[-118.44058,34.04864,0],[-118.44043,34.04867,0],[-118.4398,34.04885,0],[-118.43961,34.04891,0],[-118.43846,34.04923,0],[-118.43822,34.04929,0],[-118.43778,34.04942,0],[-118.43769,34.04944,0],[-118.43768,34.04945,0],[-118.43737,34.04953,0],[-118.43731,34.04954,0],[-118.43715,34.04959,0],[-118.43709,34.0496,0],[-118.43681,34.04968,0],[-118.43649,34.04976,0],[-118.43642,34.04977,0],[-118.43595,34.04991,0],[-118.43593,34.04992,0],[-118.43555,34.05002,0],[-118.43482,34.05023,0],[-118.4348,34.05024,0],[-118.43473,34.05026,0],[-118.43465,34.05029,0],[-118.43455,34.05032,0],[-118.43447,34.05036,0],[-118.43444,34.05037,0],[-118.43436,34.05041,0],[-118.43415,34.05053,0],[-118.43407,34.05057,0],[-118.43339,34.05106,0],[-118.43334,34.05109,0],[-118.43334,34.0511,0],[-118.43295,34.05136,0],[-118.43155,34.05234,0],[-118.43134,34.05247,0],[-118.4313,34.05249,0],[-118.43046,34.05301,0],[-118.43022,34.05317,0],[-118.42992,34.05339,0],[-118.42987,34.05342,0],[-118.42953,34.05366,0],[-118.42948,34.0537,0],[-118.42943,34.05373,0],[-118.42937,34.05378,0],[-118.42933,34.0538,0],[-118.42633,34.05588,0],[-118.42629,34.0559,0],[-118.42585,34.0562,0],[-118.4258,34.05623,0],[-118.42547,34.05647,0],[-118.4253,34.05657,0],[-118.4253,34.05658,0],[-118.42521,34.05663,0],[-118.42495,34.05679,0],[-118.42489,34.05684,0],[-118.42473,34.05696,0],[-118.42427,34.05728,0],[-118.42417,34.05732,0],[-118.42403,34.05739,0],[-118.42373,34.0576,0],[-118.42365,34.05765,0],[-118.42345,34.05779,0],[-118.42339,34.05782,0],[-118.42283,34.05819,0],[-118.42278,34.05823,0],[-118.42257,34.05837,0],[-118.42253,34.0584,0],[-118.42252,34.0584,0],[-118.42212,34.05869,0],[-118.42196,34.05879,0],[-118.4219,34.05882,0],[-118.42178,34.05891,0],[-118.42172,34.05894,0],[-118.4216,34.05902,0],[-118.42159,34.05902,0],[-118.42158,34.05903,0],[-118.42136,34.05915,0],[-118.42127,34.05921,0],[-118.42119,34.05925,0],[-118.42096,34.0594,0],[-118.42032,34.05979,0],[-118.4203,34.0598,0],[-118.42025,34.05984,0],[-118.42018,34.05988,0],[-118.42017,34.05989,0],[-118.41988,34.06008,0],[-118.41977,34.06017,0],[-118.41966,34.06024,0],[-118.41958,34.0603,0],[-118.4195,34.06035,0],[-118.41934,34.06047,0],[-118.41859,34.06096,0],[-118.41844,34.06107,0],[-118.41809,34.06129,0],[-118.41807,34.06131,0],[-118.418,34.06135,0],[-118.4175,34.06169,0],[-118.41749,34.0617,0],[-118.41629,34.06254,0],[-118.41627,34.06255,0],[-118.41566,34.06298,0],[-118.41562,34.063,0],[-118.41561,34.06301,0],[-118.41542,34.06315,0],[-118.41541,34.06315,0],[-118.41537,34.06318,0],[-118.41535,34.0632,0],[-118.41534,34.0632,0],[-118.41517,34.06335,0],[-118.41513,34.06339,0],[-118.41512,34.06341,0],[-118.41498,34.06356,0],[-118.41473,34.06391,0],[-118.41464,34.06402,0],[-118.41462,34.06405,0],[-118.41453,34.06414,0],[-118.41451,34.06415,0],[-118.4145,34.06417,0],[-118.41419,34.06438,0],[-118.41407,34.06447,0],[-118.41395,34.06455,0],[-118.4139,34.0646,0],[-118.41388,34.06463,0],[-118.41386,34.06465,0],[-118.4138,34.06475,0],[-118.41361,34.06486,0],[-118.41353,34.0649,0],[-118.41281,34.06541,0],[-118.41276,34.06545,0],[-118.41245,34.06566,0],[-118.41244,34.06567,0],[-118.41234,34.06573,0],[-118.41232,34.06575,0],[-118.41218,34.06585,0],[-118.41217,34.06586,0],[-118.41213,34.06588,0],[-118.41201,34.06597,0],[-118.41181,34.0661,0],[-118.41181,34.06611,0],[-118.41174,34.06615,0],[-118.41161,34.06624,0],[-118.41156,34.06628,0],[-118.41104,34.06664,0],[-118.41082,34.06678,0],[-118.41059,34.06694,0],[-118.4105,34.06697,0],[-118.41038,34.06702,0],[-118.41022,34.06715,0],[-118.41003,34.06729,0],[-118.40979,34.06744,0],[-118.40968,34.06752,0],[-118.40891,34.06804,0],[-118.40889,34.06806,0],[-118.40888,34.06806,0],[-118.40879,34.06813,0],[-118.40869,34.06819,0],[-118.40837,34.06841,0],[-118.40832,34.06844,0],[-118.4082,34.06853,0],[-118.40769,34.06887,0],[-118.40753,34.06899,0],[-118.40745,34.06904,0],[-118.40724,34.06919,0],[-118.4067,34.06955,0],[-118.40668,34.06961,0],[-118.40602,34.07007,0],[-118.40588,34.07016,0],[-118.40523,34.07061,0],[-118.40521,34.07063,0],[-118.40491,34.07083,0],[-118.40486,34.07086,0],[-118.40458,34.07106,0],[-118.40456,34.07107,0],[-118.40455,34.07108,0],[-118.40453,34.07109,0],[-118.40427,34.07126,0],[-118.40426,34.07127,0],[-118.40367,34.07168,0],[-118.40358,34.07158,0],[-118.40347,34.07147,0],[-118.40345,34.07144,0],[-118.40344,34.07143,0],[-118.40341,34.07141,0],[-118.40333,34.07133,0],[-118.40322,34.07121,0],[-118.40306,34.07106,0],[-118.403,34.07099,0],[-118.40297,34.07097,0],[-118.40289,34.07088,0],[-118.40268,34.07068,0],[-118.40256,34.07055,0],[-118.40207,34.07006,0],[-118.40194,34.06992,0],[-118.40129,34.06927,0]]},"properties":{"name":"Directions from 1730 W Manchester Ave, Los Angeles, CA 90047 to 339 N Beverly Dr, Beverly Hills, CA 90210","styleUrl":"#line-1267FF-5000-nodesc","stroke-opacity":1,"stroke":"#1267ff","stroke-width":5}},{"type":"Feature","geometry":{"type":"Point","coordinates":[-118.307922,33.95908,0]},"properties":{"name":"1730 W Manchester Ave, Los Angeles, CA 90047","styleUrl":"#icon-1899-DB4436-nodesc","label-scale":0,"icon-opacity":1,"icon-color":"#db4436","icon-scale":1,"icon-offset":[32,64],"icon-offset-units":["pixels","insetPixels"],"icon":"https://www.gstatic.com/mapspro/images/stock/503-wht-blank_maps.png"}},{"type":"Feature","geometry":{"type":"Point","coordinates":[-118.401293,34.069272,0]},"properties":{"name":"339 N Beverly Dr, Beverly Hills, CA 90210","styleUrl":"#icon-1899-DB4436-nodesc","label-scale":0,"icon-opacity":1,"icon-color":"#db4436","icon-scale":1,"icon-offset":[32,64],"icon-offset-units":["pixels","insetPixels"],"icon":"https://www.gstatic.com/mapspro/images/stock/503-wht-blank_maps.png"}}]}